nombre,region,latitud,longitud,altura,codigo_parroquia,Latitude, Longitude, Elevation, HorasDisconfort
10_DE_AGOSTO, Costa, -0.1, -80.1, 169, 131752, -0.13,  -80.05,  169.00,  2182\n
11_DE_NOVIEMBRE_(ILINCHISI), Sierra, -0.9, -78.7, 2906, 50157, -0.92,  -78.67,  2906.00,  5494\n
12_DE_DICIEMBRE_(CAB_EN_ACHIOTES), Sierra, -4.1, -80.1, 758, 111452, -4.06,  -80.11,  758.00,  3566\n
16_DE_AGOSTO, Oriente, -1.8, -77.9, 853, 140455, -1.77,  -77.89,  853.00,  3754\n
27_DE_ABRIL_(CAB_EN_LA_NARANJA), Sierra, -4.5, -79.5, 1306, 110654, -4.45,  -79.45,  1306.00,  4229\n
28_DE_MAYO_(SAN_JOSE_DE_YACUAMBI), Oriente, -3.6, -79, 1758, 190450, -3.64,  -78.98,  1758.00,  3247\n
5_DE_JUNIO_(CAB_EN_UIMBI), Costa, 0.9, -78.7, 174, 80555, 0.93,  -78.75,  174.00,  2380\n, 0.94,  -79.60,  174.00,  2249\n
5_DE_JUNIO_(CAB_EN_UIMBI), Costa, 0.9, -78.7, 174, 80555, 0.93,  -78.75,  174.00,  2380\n, 0.94,  -79.60,  174.00,  2249\n
6_DE_JULIO_DE_CUELLAJE_(CAB_EN_CUELLAJE), Sierra, 0.5, -78.5, 2098, 100357, 0.46,  -78.53,  2098.00,  5435\n
ABANNIN, Costa, -3.3, -79.5, 1654, 71351, -3.34,  -79.52,  1654.00,  3119\n
ABDON_CALDERON_(LA_UNION), Sierra, -3.3, -79.3, 1412, 10851, -3.26,  -79.27,  1412.00,  4163\n
ABDON_CALDERON_(SAN_FRANCISCO), Costa, -1, -80.3, 68, 130151, -1.05,  -80.32,  68.00,  1966\n
ACHUPALLAS, Sierra, -2.4, -78.6, 3605, 60251, -2.36,  -78.64,  3605.00,  6287\n
AGUAS_NEGRAS, Oriente, -0.1, -76.2, 236, 210752, -0.12,  -76.18,  236.00,  2872\n
AHUANO, Oriente, -1, -77.5, 409, 150151, -1.01,  -77.54,  409.00,  3103\n
ALAMOR, Sierra, -4, -80.1, 1043, 111050, -3.97,  -80.06,  1043.00,  3889\n
ALANGASI, Sierra, -0.3, -78.4, 2467, 170151, -0.30,  -78.43,  2467.00,  4975\n
ALAQUES_(ALAQUEZ), Sierra, -0.9, -78.5, 3818, 50151, -0.85,  -78.49,  3818.00,  6429\n
ALAUSI, Sierra, -2.2, -78.9, 2279, 60250, -2.19,  -78.85,  2279.00,  5190\n
ALEJANDRO_LABAKA, Oriente, -0.6, -76.5, 239, 220153, -0.61,  -76.50,  239.00,  2952\n
ALFREDO_BAQUERIZO_MORENO_(JUJAN), Costa, -1.9, -79.5, 10, 90250, -1.95,  -79.55,  10.00,  2383\n
ALHAJUELA_(BAJO_GRANDE), Costa, -1.1, -80.3, 136, 130152, -1.06,  -80.28,  136.00,  1980\n
ALLURIQUIN, Sierra, -0.3, -78.9, 1191, 230151, -0.29,  -78.94,  1191.00,  3930\n
ALOAG, Sierra, -0.5, -78.6, 3089, 170351, -0.45,  -78.65,  3089.00,  5762\n
ALOASI, Sierra, -0.5, -78.6, 3229, 170352, -0.54,  -78.61,  3229.00,  5803\n
ALSHI_(CAB_EN_9_DE_OCTUBRE), Oriente, -2.2, -78.3, 1553, 140151, -2.22,  -78.26,  1553.00,  3963\n
ALTO_TAMBO_(CAB_EN_GUADUAL), Costa, 0.8, -78.6, 1539, 80551, 0.76,  -78.58,  1539.00,  5351\n
AMAGUANNA, Sierra, -0.4, -78.5, 2643, 170152, -0.38,  -78.49,  2643.00,  5045\n
AMALUZA, Sierra, -2.6, -78.5, 2050, 11351, -2.63,  -78.53,  2050.00,  5189\n
AMALUZA1, , -4.6, -79.4, 2893, 110650, -4.60,  -79.39,  2893.00,  5395\n
AMARILLOS, Sierra, -3.9, -79.7, 1461, 110554, -3.88,  -79.69,  1461.00,  4199\n
AMAZONAS_(ROSARIO_DE_CUYES), Oriente, -3.4, -78.8, 2360, 140251, -3.43,  -78.79,  2360.00,  5501\n
AMBATILLO, Sierra, -1.2, -78.7, 3210, 180151, -1.22,  -78.66,  3210.00,  5831\n
AMBATO, Sierra, -1.3, -78.6, 2643, 180150, -1.26,  -78.61,  2643.00,  5395\n
AMBUQUI, Sierra, 0.4, -78, 2073, 100151, 0.41,  -78.02,  2073.00,  5057\n
AMERICA, Costa, -1.4, -80.5, 550, 130651, -1.43,  -80.51,  550.00,  3204\n
ANCHAYACU, Costa, 0.9, -79.1, 48, 80251, 0.95,  -79.11,  48.00,  2347\n
ANCONCITO, Costa, -2.3, -80.9, 31, 240351, -2.31,  -80.88,  31.00,  2593\n
ANCON_(PICHANGAL)_(CAB_EN_PALMA_REAL), Costa, 1.4, -78.9, 10, 80552, 1.41,  -78.86,  10.00,  2490\n
ANGAMARCA, Sierra, -1.1, -78.9, 3334, 50451, -1.12,  -78.91,  3334.00,  6159\n
ANGEL_PEDRO_GILER_(LA_ESTANCILLA), Costa, -0.8, -80.2, 28, 131552, -0.84,  -80.25,  28.00,  1914\n
ANGOCHAGUA, Sierra, 0.2, -78.1, 2863, 100152, 0.22,  -78.08,  2863.00,  5276\n
ANTONIO_JOSE_HOLGUIN_(SANTA_LUCIA), Sierra, -1.1, -78.6, 2692, 50551, -1.10,  -78.60,  2692.00,  5547\n
ANTONIO_SOTOMAYOR_(CAB_EN_PLAYAS_DE_VINCES), Costa, -1.7, -79.8, 16, 120851, -1.66,  -79.79,  16.00,  2473\n
APUELA, Sierra, 0.4, -78.4, 2389, 100351, 0.42,  -78.42,  2389.00,  5270\n
ARAJUNO, Oriente, -1.3, -77.7, 545, 160450, -1.26,  -77.66,  545.00,  3347\n
ARAPICOS, Oriente, -1.8, -78, 1072, 140451, -1.83,  -78.03,  1072.00,  4059\n
ARCAPAMBA, Costa, -3.6, -79.6, 1468, 71352, -3.63,  -79.61,  1468.00,  4306\n
ARCHIDONA, Oriente, -0.7, -78.2, 3439, 150350, -0.73,  -78.18,  3439.00,  6261\n
ARENILLAS, Costa, -3.6, -80, 83, 70250, -3.56,  -80.04,  83.00,  2503\n
ARQ_SIXTO_DURAN_BALLEN, Costa, -1.5, -80.3, 245, 131653, -1.48,  -80.31,  245.00,  2626\n
ASCAZUBI, Sierra, -0.1, -78.3, 3057, 170251, -0.08,  -78.26,  3057.00,  5270\n
ASUNCION, Oriente, -3.2, -79.2, 1710, 10251, -3.23,  -79.25,  1710.00,  3551\n
ASUNCION1, , -2.5, -78.3, 1657, 140651, -2.53,  -78.31,  1657.00,  4305\n
ASUNCION_(ASANCOTO), Sierra, -1.6, -79.1, 3016, 20351, -1.64,  -79.06,  3016.00,  6213\n
ATACAMES, Costa, 0.8, -79.8, 100, 80650, 0.81,  -79.82,  100.00,  2213\n
ATAHUALPA, Costa, -2.3, -80.8, 41, 240151, -2.32,  -80.77,  41.00,  2656\n
ATAHUALPA1, , -0, -80, 154, 131753, -0.04,  -79.96,  154.00,  2140\n
ATAHUALPA_(CAB_EN_CAMARONES), Costa, 0.8, -79, 140, 80252, 0.81,  -78.95,  140.00,  2352\n
ATAHUALPA_(CHISALATA), Sierra, -1.2, -78.6, 2652, 180152, -1.21,  -78.60,  2652.00,  5441\n
ATAHUALPA_(HABASPAMBA), Sierra, 0.1, -78.3, 2571, 170153, 0.15,  -78.34,  2571.00,  5149\n
ATUNTAQUI, Sierra, 0.3, -78.2, 2430, 100250, 0.33,  -78.21,  2430.00,  5026\n
AUGUSTO_N_MARTINEZ_(MUNDUGLEO), Sierra, -1.2, -78.6, 3208, 180153, -1.17,  -78.63,  3208.00,  5906\n
AVILA_(CAB_EN_HUIRUNO), Oriente, -0.7, -77.4, 469, 220451, -0.67,  -77.38,  469.00,  3168\n
AYACUCHO, Costa, -1.1, -80.3, 83, 131351, -1.15,  -80.27,  83.00,  2015\n
AYAPAMBA, Costa, -3.6, -79.7, 2113, 70351, -3.58,  -79.73,  2113.00,  4975\n
AZOGUES, Sierra, -2.7, -78.8, 2893, 30150, -2.72,  -78.82,  2893.00,  5264\n
BABA, Costa, -1.8, -79.7, 6, 120250, -1.80,  -79.69,  6.00,  2488\n
BABAHOYO, Costa, -1.9, -79.5, 5, 120150, -1.85,  -79.51,  5.00,  2445\n
BACHILLERO, Costa, -0.8, -80.2, 12, 131551, -0.76,  -80.19,  12.00,  2033\n
BAEZA, Oriente, -0.5, -78, 3193, 150750, -0.49,  -77.97,  3193.00,  6102\n
BAHIA_DE_CARAQUEZ, Costa, -0.7, -80.4, 220, 131450, -0.69,  -80.40,  220.00,  2347\n
BALAO, Costa, -2.9, -79.7, 37, 90350, -2.89,  -79.73,  37.00,  2390\n
BALSAPAMBA, Sierra, -1.8, -79.2, 1147, 20551, -1.76,  -79.15,  1147.00,  4414\n
BALSAS, Costa, -3.8, -79.8, 672, 70451, -3.77,  -79.83,  672.00,  3344\n
BALZAR, Costa, -1.3, -79.9, 36, 90450, -1.29,  -79.91,  36.00,  2148\n
BANNOS, Sierra, -3, -79.2, 3522, 10151, -2.98,  -79.22,  3522.00,  6395\n
BANNOS_DE_AGUA_SANTA, Sierra, -1.4, -78.4, 2693, 180250, -1.43,  -78.42,  2693.00,  5479\n
BAQUERIZO_MORENO, Sierra, -1.2, -78.5, 3325, 180851, -1.21,  -78.47,  3325.00,  5977\n
BARBONES_(SUCRE), Costa, -3.2, -79.9, 4, 70651, -3.17,  -79.87,  4.00,  2377\n
BARRAGANETE, Costa, -0.7, -79.8, 148, 131151, -0.75,  -79.79,  148.00,  2200\n
BELISARIO_QUEVEDO_(GUANAILIN), Sierra, -1, -78.6, 3140, 50152, -0.97,  -78.56,  3140.00,  5728\n
BELLAMARIA, Costa, -3.8, -79.9, 595, 70850, -3.76,  -79.86,  595.00,  3189\n
BELLAMARIA1, , -3.5, -79.9, 76, 71257, -3.52,  -79.86,  76.00,  2267\n
BELLAVISTA2, , -3.5, -80, 26, 71251, -3.51,  -79.96,  26.00,  2268\n
BELLAVISTA3, , -4.5, -79.5, 1651, 110651, -4.52,  -79.46,  1651.00,  4588\n
BELLAVISTA4, , -1.4, -80.3, 172, 131651, -1.37,  -80.31,  172.00,  2138\n
BELLAVISTA5, , -3.9, -78.6, 1588, 190553, -3.88,  -78.62,  1588.00,  4241\n
BELLAVISTA6, , -0.3, -90.5, 1000, 200351, -0.35,  -90.52,  1000.00,  3529\n
BENITEZ_(PACHANLICA), Sierra, -1.3, -78.6, 2772, 180751, -1.34,  -78.58,  2772.00,  5483\n
BERMEJOS, Oriente, -3.3, -78.8, 2631, 140252, -3.28,  -78.76,  2631.00,  5567\n
BIBLIAN, Sierra, -2.7, -78.9, 3021, 30250, -2.67,  -78.91,  3021.00,  5616\n
BILBAO_(CAB_EN_QUILLUYACU), Sierra, -1.5, -78.5, 2865, 60956, -1.47,  -78.49,  2865.00,  5403\n
BILOVAN, Sierra, -1.8, -79.2, 1977, 20552, -1.83,  -79.16,  1977.00,  5865\n
BOLASPAMBA, Sierra, -4.1, -80.3, 565, 111355, -4.13,  -80.33,  565.00,  3410\n
BOLIVAR, Sierra, -1.4, -78.6, 3004, 180752, -1.39,  -78.55,  3004.00,  5598\n
BOLIVAR1, , 0.5, -77.9, 2550, 40250, 0.49,  -77.89,  2550.00,  5281\n
BOLIVAR2, , 0.5, -80, 58, 80351, 0.46,  -80.02,  58.00,  2122\n
BOMBOIZA, Oriente, -3.5, -78.5, 1092, 140253, -3.47,  -78.53,  1092.00,  3954\n
BORBON, Costa, 1, -79, 23, 80253, 1.02,  -79.00,  23.00,  2388\n
BOYACA, Costa, -0.5, -80.2, 220, 130351, -0.55,  -80.17,  220.00,  2414\n
BUENAVISTA, Costa, -3.9, -79.7, 1110, 110551, -3.90,  -79.72,  1110.00,  3925\n
BUENAVISTA1, , -3.4, -79.8, 24, 71256, -3.37,  -79.83,  24.00,  2151\n
BULAN_(JOSE_VICTOR_IZQUIERDO), Sierra, -2.7, -78.8, 2565, 10552, -2.72,  -78.77,  2565.00,  5199\n
CACHA_(CAB_EN_MACHANGARA), Sierra, -1.7, -78.7, 3269, 60151, -1.71,  -78.71,  3269.00,  5913\n
CAHUASQUI, Sierra, 0.5, -78.3, 2511, 100651, 0.52,  -78.26,  2511.00,  5198\n
CALACALI, Sierra, 0, -78.5, 2869, 170154, 0.05,  -78.52,  2869.00,  5393\n
CALCETA, Costa, -0.9, -80.1, 159, 130250, -0.92,  -80.06,  159.00,  2067\n
CALDERON, Costa, 1.2, -78.8, 21, 80553, 1.17,  -78.77,  21.00,  2397\n
CALDERON_(CARAPUNGO), Sierra, -0.1, -78.4, 2700, 170155, -0.09,  -78.42,  2700.00,  4934\n
CALPI, Sierra, -1.6, -78.8, 3205, 60152, -1.62,  -78.75,  3205.00,  5808\n
CALUMA, Sierra, -1.6, -79.2, 703, 20650, -1.61,  -79.22,  703.00,  3561\n
CAMARONES_(CAB_EN_SAN_VICENTE), Costa, 1, -79.5, 81, 80152, 0.96,  -79.51,  81.00,  2294\n
CAMILO_PONCE_ENRIQUEZ, Sierra, -3.1, -79.7, 1209, 11550, -3.05,  -79.65,  1209.00,  4287\n
CAMPOZANO_(LA_PALMA_DE_PAJAN), Costa, -1.6, -80.4, 167, 131051, -1.62,  -80.38,  167.00,  2297\n
CANCHAGUA, Sierra, -0.8, -78.7, 3561, 50651, -0.78,  -78.72,  3561.00,  5963\n
CANELOS, Oriente, -1.6, -77.7, 472, 160152, -1.58,  -77.72,  472.00,  3244\n
CANGAHUA, Sierra, -0.1, -78.1, 3495, 170252, -0.09,  -78.15,  3495.00,  5756\n
CANGONAMA, Sierra, -4, -79.7, 2244, 110951, -3.95,  -79.72,  2244.00,  5129\n
CANNAQUEMADA, Costa, -3.3, -79.8, 25, 70956, -3.28,  -79.81,  25.00,  2219\n
CANNAR, Sierra, -2.5, -79, 3577, 30350, -2.54,  -78.98,  3577.00,  6309\n
CANNI, Sierra, -1.8, -79, 3147, 60351, -1.80,  -78.96,  3147.00,  6032\n
CANOA, Costa, -0.4, -80.4, 102, 132251, -0.41,  -80.39,  102.00,  2012\n
CANUTO, Costa, -0.8, -80.1, 143, 130352, -0.80,  -80.06,  143.00,  2134\n
CAPIRO_(CAB_EN_LA_CAPILLA_DE_CAPIRO), Costa, -3.8, -79.8, 632, 71051, -3.79,  -79.76,  632.00,  3310\n
CAPITAN_AUGUSTO_RIVADENEYRA, Oriente, -0.6, -75.8, 219, 220251, -0.56,  -75.81,  219.00,  2698\n
CAPZOL, Sierra, -2.3, -78.9, 2360, 60551, -2.31,  -78.93,  2360.00,  5456\n
CARACOL, Costa, -1.7, -79.4, 14, 120152, -1.69,  -79.44,  14.00,  2358\n
CARCABON, Costa, -3.6, -80.2, 86, 70255, -3.63,  -80.16,  86.00,  2507\n
CARIAMANGA, Sierra, -4.3, -79.6, 1899, 110250, -4.33,  -79.57,  1899.00,  4713\n
CARLOS_JULIO_AROSEMENA_TOLA, Oriente, -1.2, -77.9, 964, 150950, -1.16,  -77.94,  964.00,  3940\n
CAROLINA, Sierra, 0.6, -78.2, 2486, 100153, 0.65,  -78.22,  2486.00,  5227\n
CARONDELET, Costa, 1.1, -78.7, 45, 80554, 1.13,  -78.74,  45.00,  2391\n
CASACAY, Costa, -3.3, -79.7, 245, 70952, -3.35,  -79.71,  245.00,  2654\n
CASANGA, Sierra, -4, -79.8, 972, 110958, -4.02,  -79.76,  972.00,  3770\n
CASCOL, Costa, -1.8, -80.5, 513, 131052, -1.77,  -80.47,  513.00,  3050\n
CATACOCHA, Sierra, -4.1, -79.6, 2216, 110950, -4.08,  -79.65,  2216.00,  4912\n
CATAMAYO_(LA_TOMA), Sierra, -4, -79.3, 1543, 110350, -3.97,  -79.35,  1543.00,  4337\n
CATARAMA, Costa, -1.6, -79.5, 11, 120650, -1.59,  -79.48,  11.00,  2457\n, -1.55,  -79.54,  11.00,  2417\n
CATARAMA, Costa, -1.6, -79.5, 11, 120650, -1.59,  -79.48,  11.00,  2457\n, -1.55,  -79.54,  11.00,  2417\n
CAYAMBE, Sierra, 0, -78.1, 3605, 170250, 0.00,  -78.07,  3605.00,  5907\n
CEBADAS, Sierra, -2, -78.6, 4021, 60651, -2.05,  -78.55,  4021.00,  6545\n
CELICA, Sierra, -4.1, -80, 1144, 110450, -4.15,  -79.95,  1144.00,  3936\n
CEVALLOS, Sierra, -1.4, -78.6, 2872, 180350, -1.35,  -78.61,  2872.00,  5467\n
CHACRAS, Costa, -3.5, -80.2, 23, 70251, -3.53,  -80.17,  23.00,  2522\n
CHAGUARPAMBA, Sierra, -3.9, -79.6, 858, 110550, -3.87,  -79.63,  858.00,  3630\n
CHAMBO, Sierra, -1.8, -78.5, 3843, 60450, -1.75,  -78.54,  3843.00,  6501\n
CHANDUY, Costa, -2.4, -80.5, 121, 240153, -2.36,  -80.52,  121.00,  2609\n
CHANGAIMINA_(LA_LIBERTAD), Sierra, -4.2, -79.5, 1638, 110751, -4.24,  -79.53,  1638.00,  4409\n
CHANTACO, Sierra, -3.9, -79.3, 2394, 110151, -3.88,  -79.32,  2394.00,  5311\n
CHAQUINAL, Sierra, -4.1, -80, 1216, 111451, -4.06,  -80.04,  1216.00,  4088\n
CHARAPOTO, Costa, -0.8, -80.4, 111, 131453, -0.79,  -80.45,  111.00,  1953\n
CHAUCHA, Sierra, -2.9, -79.4, 1984, 10153, -2.93,  -79.39,  1984.00,  5457\n
CHAVEZPAMBA, Sierra, 0.1, -78.4, 2273, 170158, 0.13,  -78.40,  2273.00,  5023\n
CHECA_(CHILPA), Sierra, -0.2, -78.3, 3231, 170159, -0.16,  -78.26,  3231.00,  5508\n
CHECA_(JIDCAY), Sierra, -2.7, -79, 3751, 10154, -2.73,  -79.03,  3751.00,  6410\n
CHIBUNGA, Costa, -0.1, -79.7, 219, 130354, -0.06,  -79.75,  219.00,  2608\n
CHICANNA, Oriente, -3.6, -78.7, 2172, 190551, -3.65,  -78.75,  2172.00,  5214\n
CHICAN_(GUILLERMO_ORTEGA), Sierra, -2.8, -78.7, 2854, 10553, -2.81,  -78.75,  2854.00,  5322\n
CHIGUAZA, Oriente, -2, -78, 967, 140751, -2.01,  -77.97,  967.00,  3964\n
CHIGUINDA, Oriente, -3.2, -78.7, 3371, 140254, -3.17,  -78.69,  3371.00,  6215\n
CHILLA, Costa, -3.4, -79.6, 1855, 70550, -3.44,  -79.63,  1855.00,  3849\n
CHILLANES, Sierra, -2, -79.1, 2314, 20250, -2.01,  -79.08,  2314.00,  6081\n
CHINCA, Costa, 0.8, -79.6, 22, 80154, 0.77,  -79.56,  22.00,  2201\n
CHIQUICHA_(CAB_EN_CHIQUICHA_GRANDE), Sierra, -1.3, -78.5, 2643, 180754, -1.25,  -78.53,  2643.00,  5333\n
CHIQUINTAD, Sierra, -2.8, -79.1, 3550, 10155, -2.77,  -79.06,  3550.00,  6402\n
CHIRIJOS, Costa, -1, -80.2, 120, 130157, -1.01,  -80.19,  120.00,  2064\n
CHITAN_DE_NAVARRETE, Sierra, 0.7, -77.8, 3207, 40552, 0.66,  -77.81,  3207.00,  5816\n
CHITO, Oriente, -4.9, -79, 1450, 190251, -4.87,  -79.01,  1450.00,  4554\n
CHOBO, Costa, -2.1, -79.6, 10, 91051, -2.14,  -79.64,  10.00,  2517\n, -2.10,  -79.58,  10.00,  2471\n
CHOBO, Costa, -2.1, -79.6, 10, 91051, -2.14,  -79.64,  10.00,  2517\n, -2.10,  -79.58,  10.00,  2471\n
CHONE, Costa, -0.7, -79.9, 361, 130350, -0.66,  -79.89,  361.00,  2882\n
CHONTADURO, Costa, 0.9, -79.4, 203, 80751, 0.87,  -79.40,  203.00,  2387\n
CHONTAMARCA, Sierra, -2.4, -79.2, 2031, 30351, -2.39,  -79.15,  2031.00,  5762\n
CHONTAPUNTA, Oriente, -0.9, -77.3, 393, 150153, -0.94,  -77.27,  393.00,  3167\n
CHORDELEG, Sierra, -2.9, -78.8, 2586, 11150, -2.94,  -78.78,  2586.00,  5146\n
CHOROCOPTE, Sierra, -2.6, -79, 3568, 30352, -2.60,  -78.97,  3568.00,  6244\n
CHUGA, Sierra, 0.4, -77.9, 2841, 100551, 0.36,  -77.88,  2841.00,  5488\n
CHUGCHILLAN, Sierra, -0.8, -79, 3217, 50751, -0.83,  -78.98,  3217.00,  6127\n
CHUMBLIN, Sierra, -3.1, -79.2, 3528, 10751, -3.09,  -79.25,  3528.00,  6173\n
CHUMUNDE, Costa, 0.7, -79.4, 193, 80752, 0.70,  -79.39,  193.00,  2320\n
CHUNCHI, Sierra, -2.3, -78.9, 2992, 60550, -2.33,  -78.87,  2992.00,  5807\n
CHUPIANZA, Oriente, -2.8, -78.4, 1845, 140552, -2.78,  -78.39,  1845.00,  5216\n
CHUQUIRIBAMBA, Sierra, -3.8, -79.4, 3083, 110152, -3.84,  -79.36,  3083.00,  5780\n
CHURA_(CHANCAMA)_(CAB_EN_EL_YERBERO), Costa, 0.5, -79.5, 86, 80452, 0.53,  -79.46,  86.00,  2204\n
CIANO, Sierra, -3.9, -80, 1114, 111051, -3.91,  -79.99,  1114.00,  3892\n
COCHAPAMBA, Sierra, -0.8, -78.8, 3826, 50653, -0.84,  -78.78,  3826.00,  6289\n
COCHAPATA, Sierra, -3.4, -79.1, 2860, 10451, -3.38,  -79.06,  2860.00,  5202\n
COJIMIES, Costa, 0.2, -79.9, 67, 131751, 0.22,  -79.86,  67.00,  2134\n
COJITAMBO, Sierra, -2.8, -78.9, 2836, 30151, -2.76,  -78.88,  2836.00,  5310\n
COLAISACA, Sierra, -4.3, -79.7, 1527, 110251, -4.25,  -79.69,  1527.00,  4361\n
COLIMES, Costa, -1.5, -80.1, 23, 90550, -1.50,  -80.07,  23.00,  2397\n
COLONCHE, Costa, -2, -80.6, 71, 240152, -2.03,  -80.57,  71.00,  2456\n
COLON_ELOY_DEL_MARIA, Costa, 1, -78.9, 47, 80262, 1.00,  -78.91,  47.00,  2398\n
COLUMBE, Sierra, -1.9, -78.8, 3695, 60352, -1.86,  -78.78,  3695.00,  6287\n
COMPUD, Sierra, -2.4, -78.9, 2791, 60552, -2.36,  -78.93,  2791.00,  5501\n
CONCEPCION, Costa, 1, -78.8, 21, 80256, 1.04,  -78.85,  21.00,  2360\n
CONCEPCION1, , 0.7, -78.1, 2793, 40451, 0.66,  -78.11,  2793.00,  5223\n
CONOCOTO, Sierra, -0.3, -78.5, 2526, 170156, -0.29,  -78.48,  2526.00,  5130\n
CONONACO, Oriente, -1.1, -76.1, 244, 220252, -1.05,  -76.07,  244.00,  2749\n
CONSTANTINO_FERNANDEZ_(CAB_EN_CULLITAHUA), Sierra, -1.2, -78.6, 3049, 180154, -1.19,  -78.64,  3049.00,  5723\n
CONVENTO, Costa, -0.2, -80, 214, 130353, -0.24,  -80.00,  214.00,  2144\n
COPAL, Oriente, -2.8, -78.5, 2006, 140551, -2.77,  -78.50,  2006.00,  5215\n
CORDONCILLO, Costa, -3.6, -79.6, 1969, 70352, -3.56,  -79.63,  1969.00,  4121\n
CORONEL_MARCELINO_MARIDUENNA_(SAN_CARLOS), Costa, -2.2, -79.4, 45, 92350, -2.24,  -79.38,  45.00,  2433\n
COSANGA, Oriente, -0.6, -78, 3266, 150751, -0.58,  -77.96,  3266.00,  6150\n
COTACACHI, Sierra, 0.3, -78.3, 2669, 100350, 0.31,  -78.30,  2669.00,  5199\n
COTALO, Sierra, -1.4, -78.5, 2229, 180753, -1.44,  -78.51,  2229.00,  5182\n
COTOGCHOA, Sierra, -0.4, -78.5, 3005, 170551, -0.41,  -78.46,  3005.00,  5145\n
COTUNDO, Oriente, -0.7, -77.8, 1327, 150352, -0.70,  -77.83,  1327.00,  4590\n
CRISTOBAL_COLON, Sierra, 0.6, -77.8, 2802, 40551, 0.61,  -77.81,  2802.00,  5309\n
CRNEL_CARLOS_CONCHA_TORRES_(CAB_EN_HUELE), Costa, 0.7, -79.7, 358, 80153, 0.67,  -79.72,  358.00,  3038\n
CRNEL_LORENZO_DE_GARAICOA_(PEDREGAL), Costa, -2.1, -79.4, 40, 92251, -2.06,  -79.37,  40.00,  2449\n
CRUCITA, Costa, -0.9, -80.5, 114, 130153, -0.89,  -80.53,  114.00,  2028\n
CRUZPAMBA_(CAB_EN_CARLOS_BUSTAMANTE), Sierra, -4.2, -80, 1018, 110451, -4.17,  -80.02,  1018.00,  3892\n
CUBE, Costa, 0.5, -79.7, 445, 80451, 0.49,  -79.67,  445.00,  3278\n
CUBIJIES, Sierra, -1.7, -78.6, 2738, 60153, -1.66,  -78.60,  2738.00,  5401\n
CUCHAENTZA, Oriente, -2.2, -77.8, 1029, 140162, -2.16,  -77.85,  1029.00,  4045\n
CUCHIL_(CUTCHIL), Sierra, -3.1, -78.8, 2840, 10951, -3.14,  -78.81,  2840.00,  5544\n
CUENCA, Sierra, -2.9, -79, 2557, 10150, -2.89,  -79.00,  2557.00,  5338\n
CUMANDA, Sierra, -2.2, -79.1, 742, 61050, -2.21,  -79.08,  742.00,  3652\n
CUMANDA_(CAB_EN_COLONIA_AGRICOLA_SEVILLA_DEL_ORO), Oriente, -1.6, -78.2, 1878, 140452, -1.59,  -78.19,  1878.00,  5370\n
CUMBARATZA, Oriente, -4, -78.9, 1122, 190151, -3.98,  -78.87,  1122.00,  3971\n
CUMBAYA, Sierra, -0.2, -78.4, 2351, 170157, -0.21,  -78.44,  2351.00,  4916\n
CUMBE, Sierra, -3.1, -79, 2886, 10152, -3.10,  -79.02,  2886.00,  5409\n
CUNCHIBAMBA, Sierra, -1.1, -78.6, 2670, 180167, -1.13,  -78.59,  2670.00,  5467\n
CURARAY, Oriente, -1.4, -76.7, 239, 160451, -1.35,  -76.69,  239.00,  2955\n
CURTINCAPA, Costa, -3.7, -79.5, 1174, 71151, -3.73,  -79.54,  1174.00,  3895\n
CUSUBAMBA, Sierra, -1.1, -78.7, 3815, 50552, -1.09,  -78.75,  3815.00,  6433\n
CUTUGLAHUA, Sierra, -0.4, -78.6, 3058, 170353, -0.37,  -78.57,  3058.00,  5545\n
CUYABENO, Oriente, -0.4, -75.6, 224, 210751, -0.36,  -75.63,  224.00,  2800\n
CUYUJA, Oriente, -0.4, -78.1, 3580, 150752, -0.42,  -78.06,  3580.00,  6199\n
DANIEL_CORDOVA_TORAL_(EL_ORIENTE), Sierra, -2.9, -78.7, 3030, 10352, -2.88,  -78.72,  3030.00,  5491\n
DAULE, Costa, -1.9, -80, 12, 90650, -1.90,  -79.96,  12.00,  2528\n
DAULE1, , 0.4, -80, 82, 80352, 0.40,  -79.97,  82.00,  2181\n
DAYUMA, Oriente, -0.7, -76.8, 294, 220151, -0.71,  -76.78,  294.00,  2933\n
DELEG, Sierra, -2.8, -78.9, 2877, 30650, -2.75,  -78.94,  2877.00,  5389\n
DIEZ_DE_AGOSTO, Oriente, -1.4, -77.9, 1000, 160154, -1.44,  -77.88,  1000.00,  3065\n
DOCTOR_MIGUEL_EGAS_CABEZAS_(PEGUCHE), Sierra, 0.3, -78.2, 2735, 100451, 0.25,  -78.23,  2735.00,  5162\n
DUCUR, Sierra, -2.5, -79.2, 1361, 30363, -2.47,  -79.17,  1361.00,  3124\n
DUG_DUG, Sierra, -2.7, -78.7, 2627, 10562, -2.72,  -78.73,  2627.00,  5215\n
DURENO, Oriente, 0, -76.7, 281, 210152, 0.01,  -76.69,  281.00,  2932\n
ECHEANDIA, Sierra, -1.5, -79.3, 702, 20450, -1.46,  -79.26,  702.00,  3557\n
ELOY_ALFARO, Costa, -0.4, -80.1, 137, 130355, -0.41,  -80.08,  137.00,  2026\n
ELOY_ALFARO_(DURAN), Costa, -2.2, -79.8, 4, 90750, -2.23,  -79.78,  4.00,  2533\n
EL_AIRO, Sierra, -4.5, -79.4, 2357, 110656, -4.48,  -79.38,  2357.00,  4993\n
EL_ALTAR, Sierra, -1.5, -78.4, 3662, 60951, -1.55,  -78.44,  3662.00,  6313\n
EL_ANEGADO_(CAB_EN_ELOY_ALFARO), Costa, -1.5, -80.5, 428, 130652, -1.50,  -80.53,  428.00,  3009\n
EL_ANGEL, Sierra, 0.6, -78, 3023, 40350, 0.64,  -77.97,  3023.00,  5478\n
EL_ARENAL, Sierra, -4, -80, 962, 111052, -3.98,  -79.98,  962.00,  3764\n
EL_CABO, Sierra, -2.8, -78.8, 2768, 10554, -2.84,  -78.80,  2768.00,  5325\n
EL_CARMELO_(EL_PUN), Sierra, 0.7, -77.6, 2987, 40151, 0.66,  -77.61,  2987.00,  5548\n
EL_CARMEN, Costa, -0.4, -79.5, 168, 130450, -0.39,  -79.53,  168.00,  2186\n
EL_CARMEN_DE_PIJILI, Sierra, -2.9, -79.6, 591, 11551, -2.92,  -79.56,  591.00,  3408\n
EL_CHACO, Oriente, -0.3, -77.8, 1541, 150450, -0.34,  -77.80,  1541.00,  5258\n
EL_CHAUPI, Sierra, -0.6, -78.7, 3618, 170354, -0.60,  -78.69,  3618.00,  6072\n
EL_CHICAL, Sierra, 1, -78.3, 1367, 40159, 1.00,  -78.26,  1367.00,  3687\n
EL_CHORRO, Oriente, -4.9, -79.1, 1204, 190252, -4.91,  -79.10,  1204.00,  4273\n
EL_CISNE, Sierra, -3.8, -79.5, 1911, 110153, -3.84,  -79.45,  1911.00,  3569\n
EL_CORAZON, Sierra, -1.1, -79, 2254, 50350, -1.14,  -79.03,  2254.00,  5728\n
EL_DORADO, Oriente, -0.5, -76.9, 307, 220154, -0.53,  -76.92,  307.00,  2986\n
EL_DORADO_DE_CASCALES, Oriente, 0.1, -77.2, 506, 210650, 0.15,  -77.25,  506.00,  2690\n
EL_EDEN, Oriente, -0.6, -76.2, 234, 220155, -0.57,  -76.19,  234.00,  2904\n
EL_ENO, Oriente, -0, -76.9, 322, 210155, -0.04,  -76.87,  322.00,  3013\n
EL_ESFUERZO, Sierra, -0.5, -79.2, 587, 230156, -0.46,  -79.21,  587.00,  3422\n
EL_GOALTAL, Sierra, 0.8, -78.1, 2442, 40351, 0.77,  -78.13,  2442.00,  5321\n
EL_GUABO, Costa, -3.2, -79.8, 13, 70650, -3.22,  -79.80,  13.00,  2306\n
EL_GUISME, Oriente, -3.6, -78.6, 950, 190651, -3.57,  -78.59,  950.00,  3718\n
EL_IDEAL, Oriente, -3.4, -78.7, 1438, 140258, -3.38,  -78.67,  1438.00,  4339\n
EL_INGENIO, Costa, -4.4, -79.4, 1809, 110655, -4.44,  -79.38,  1809.00,  4714\n
EL_INGENIO1, , -3.7, -79.9, 632, 70851, -3.73,  -79.95,  632.00,  3272\n
EL_LIMO_(MARIANA_DE_JESUS), Sierra, -4, -80.2, 779, 111053, -4.00,  -80.19,  779.00,  3567\n
EL_LUCERO, Sierra, -4.4, -79.5, 1539, 110252, -4.39,  -79.50,  1539.00,  4379\n
EL_PAN, Sierra, -2.8, -78.7, 2462, 11250, -2.78,  -78.67,  2462.00,  5180\n
EL_PANGUI, Oriente, -3.6, -78.6, 836, 190650, -3.63,  -78.60,  836.00,  3612\n
EL_PARAISO, Costa, -3.8, -80, 664, 71452, -3.80,  -80.02,  664.00,  3368\n
EL_PARAISO_DE_CELEN, Sierra, -3.6, -79.4, 2794, 111151, -3.60,  -79.35,  2794.00,  5373\n
EL_PIEDRERO, Costa, -2.4, -79.3, 321, 900451, -2.38,  -79.27,  321.00,  2847\n
EL_PLAYON_DE_SAN_FRANCISCO, Oriente, 0.5, -77.7, 3493, 210551, 0.53,  -77.67,  3493.00,  6143\n
EL_PORVENIR_DEL_CARMEN, Oriente, -4.5, -79, 2445, 190851, -4.48,  -79.02,  2445.00,  5439\n
EL_PROGRESO, , -0.8, -89.4, 1000, 200151, -0.83,  -89.43,  1000.00,  3475\n
EL_PROGRESO_(CAB_EN_ZHOTA), Sierra, -3.4, -79.2, 2307, 10452, -3.37,  -79.25,  2307.00,  5014\n
EL_QUINCHE, Sierra, -0.1, -78.3, 2975, 170160, -0.12,  -78.27,  2975.00,  5116\n
EL_RETIRO, Costa, -3.4, -80, 0, 70152, -3.38,  -79.96,  0.00,  2327\n
EL_REVENTADOR, Oriente, 0.1, -77.7, 2181, 210251, 0.07,  -77.73,  2181.00,  5598\n
EL_ROSARIO, Costa, -3.3, -78.7, 1869, 140255, -3.25,  -78.65,  1869.00,  4685\n
EL_ROSARIO1, , -1.1, -79.8, 66, 90852, -1.05,  -79.78,  66.00,  2128\n
EL_ROSARIO2, , -3.8, -79.6, 913, 110552, -3.80,  -79.64,  913.00,  3655\n
EL_ROSARIO_(RUMICHACA), Sierra, -1.3, -78.6, 2806, 180755, -1.28,  -78.56,  2806.00,  5388\n
EL_SALITRE_(LAS_RAMAS), Costa, -1.8, -79.8, 8, 91950, -1.83,  -79.82,  8.00,  2485\n
EL_TABLON, Sierra, -3.5, -79.2, 2859, 111152, -3.51,  -79.18,  2859.00,  5392\n
EL_TAMBO, Sierra, -2.5, -78.9, 3382, 30550, -2.49,  -78.92,  3382.00,  6163\n
EL_TAMBO1, , -4.1, -79.3, 1765, 110351, -4.09,  -79.30,  1765.00,  4485\n
EL_TRIUNFO, Sierra, -2.3, -79.4, 59, 90950, -2.29,  -79.36,  59.00,  2433\n
EL_TRIUNFO1, , -1.3, -78.4, 2460, 180551, -1.31,  -78.41,  2460.00,  5355\n
EL_TRIUNFO2, , -1.4, -77.8, 834, 160166, -1.43,  -77.77,  834.00,  3715\n
EMILIO_MARIA_TERAN_(RUMIPAMBA), Sierra, -1.2, -78.5, 2748, 180852, -1.21,  -78.50,  2748.00,  5470\n
ENOKANQUI, Oriente, -0.2, -76.8, 280, 220351, -0.23,  -76.84,  280.00,  2903\n
ESMERALDAS, Costa, 0.9, -79.7, 185, 80150, 0.95,  -79.69,  185.00,  2344\n
EUGENIO_ESPEJO_(CALPAQUI), Sierra, 0.2, -78.3, 2979, 100452, 0.19,  -78.25,  2979.00,  5298\n
FACUNDO_VELA, Sierra, -1.2, -79.1, 1788, 20151, -1.21,  -79.13,  1788.00,  5585\n
FATIMA, Oriente, -1.4, -78, 1037, 160155, -1.42,  -77.98,  1037.00,  3044\n
FEBRES_CORDERO_(LAS_JUNTAS), Costa, -2, -79.3, 24, 120153, -1.98,  -79.32,  24.00,  2365\n
FERNANDEZ_SALVADOR, Sierra, 0.6, -77.7, 3023, 40553, 0.57,  -77.73,  3023.00,  5567\n
FLAVIO_ALFARO, Costa, -0.3, -79.8, 280, 130550, -0.35,  -79.80,  280.00,  2617\n
FLORES, Sierra, -1.8, -78.7, 3125, 60154, -1.83,  -78.66,  3125.00,  5694\n
FUNDOCHAMBA, Sierra, -4.3, -79.4, 1932, 111551, -4.33,  -79.37,  1932.00,  4712\n
GALERA, Costa, 0.8, -80.1, 150, 80353, 0.78,  -80.05,  150.00,  2308\n
GARCIA_MORENO, Sierra, 0.5, -78, 2977, 40251, 0.55,  -77.97,  2977.00,  5378\n
GARCIA_MORENO1, , -0.6, -77, 279, 220156, -0.57,  -77.02,  279.00,  2911\n
GARCIA_MORENO_(CHUMAQUI), Sierra, -1.3, -78.5, 2487, 180756, -1.30,  -78.54,  2487.00,  5286\n
GARCIA_MORENO_(LLURIMAGUA), Sierra, 0.3, -78.8, 1529, 100352, 0.30,  -78.79,  1529.00,  5257\n
GARZAREAL, Sierra, -4.3, -80.3, 376, 111352, -4.27,  -80.27,  376.00,  3258\n
GENERAL_FARFAN, Oriente, 0.2, -76.7, 329, 210153, 0.18,  -76.74,  329.00,  2767\n
GENERAL_MORALES_(SOCARTE), Sierra, -2.4, -79, 2408, 30353, -2.37,  -79.05,  2408.00,  5750\n
GENERAL_PROANNO, Oriente, -2.3, -78.1, 1109, 140153, -2.25,  -78.14,  1109.00,  4113\n
GENERAL_VILLAMIL_(PLAYAS), Costa, -2.6, -80.4, 117, 92150, -2.56,  -80.44,  117.00,  2635\n
GIMA, Sierra, -3.2, -78.9, 2876, 10952, -3.21,  -78.93,  2876.00,  5607\n
GIRON, Sierra, -3.2, -79.1, 2611, 10250, -3.18,  -79.13,  2611.00,  5285\n
GONZALEZ_SUAREZ, Sierra, 0.2, -78.2, 2932, 100453, 0.15,  -78.20,  2932.00,  5284\n
GONZALO_DIAZ_DE_PINEDA_(EL_BOMBON), Oriente, -0.3, -77.5, 1208, 150451, -0.26,  -77.51,  1208.00,  4573\n
GONZALO_PIZARRO, Oriente, -0.1, -77.4, 696, 210252, -0.06,  -77.38,  696.00,  2851\n
GONZANAMA, Sierra, -4.2, -79.4, 1987, 110750, -4.23,  -79.44,  1987.00,  3749\n
GONZOL, Sierra, -2.3, -78.9, 2891, 60553, -2.27,  -78.86,  2891.00,  5517\n
GRAL_ANTONIO_ELIZALDE_(BUCAY), Costa, -2.2, -79.2, 178, 92750, -2.16,  -79.20,  178.00,  2434\n
GRAL_LEONIDAS_PLAZA_GUTIERREZ, Oriente, -3, -78.5, 2572, 140350, -2.99,  -78.53,  2572.00,  5413\n
GRAL_PEDRO_J_MONTERO_(BOLICHE), Costa, -2.3, -79.6, 21, 92053, -2.26,  -79.59,  21.00,  2505\n
GRAL_VERNAZA_(DOS_ESTEROS), Costa, -1.8, -79.8, 7, 91951, -1.77,  -79.78,  7.00,  2479\n
GUACHANAMA, Sierra, -4, -79.9, 2676, 110952, -4.04,  -79.86,  2676.00,  5364\n
GUACHAPALA, Sierra, -2.8, -78.7, 2375, 11450, -2.77,  -78.70,  2375.00,  5186\n
GUADALUPE, Oriente, -3.9, -78.9, 997, 190152, -3.87,  -78.91,  997.00,  3805\n
GUAITACAMA_(GUAYTACAMA), Sierra, -0.8, -78.6, 2900, 50153, -0.83,  -78.64,  2900.00,  5408\n
GUALACEO, Sierra, -2.9, -78.8, 2454, 10350, -2.90,  -78.80,  2454.00,  5149\n
GUALAQUIZA, Oriente, -3.3, -78.6, 1578, 140250, -3.32,  -78.57,  1578.00,  2995\n
GUALE, Costa, -1.6, -80.3, 64, 131053, -1.65,  -80.27,  64.00,  2358\n
GUALEA, Sierra, 0.1, -78.8, 1324, 170161, 0.12,  -78.76,  1324.00,  4941\n
GUALEL, Sierra, -3.8, -79.4, 2580, 110154, -3.75,  -79.37,  2580.00,  5318\n
GUALLETURO, Sierra, -2.6, -79.1, 3739, 30354, -2.58,  -79.10,  3739.00,  6661\n
GUAMBALO_(HUAMBALO), Sierra, -1.4, -78.5, 2966, 180757, -1.40,  -78.53,  2966.00,  5377\n
GUAMOTE, Sierra, -2, -78.7, 3596, 60650, -2.00,  -78.69,  3596.00,  6163\n
GUANANDO, Sierra, -1.5, -78.5, 2492, 60751, -1.51,  -78.53,  2492.00,  5310\n
GUANAZAN, Costa, -3.4, -79.5, 2941, 71353, -3.45,  -79.50,  2941.00,  5549\n
GUANGAJE, Sierra, -0.9, -78.8, 3642, 50453, -0.90,  -78.84,  3642.00,  6292\n
GUANGOPOLO, Sierra, -0.3, -78.4, 2526, 170162, -0.25,  -78.44,  2526.00,  5001\n
GUANO, Sierra, -1.6, -78.6, 2661, 60750, -1.60,  -78.62,  2661.00,  5347\n
GUAPAN, Sierra, -2.7, -78.8, 3236, 30153, -2.67,  -78.84,  3236.00,  5686\n
GUARAINAG, Sierra, -2.7, -78.6, 2739, 10556, -2.68,  -78.64,  2739.00,  5332\n
GUARANDA, Sierra, -1.5, -79, 3170, 20150, -1.51,  -79.01,  3170.00,  6204\n
GUARE, Costa, -1.6, -79.7, 14, 120251, -1.59,  -79.66,  14.00,  2396\n
GUASAGANDA_(CAB_EN_GUASAGANDA_CENTRO), Sierra, -0.8, -79.1, 1466, 50251, -0.79,  -79.10,  1466.00,  5023\n
GUASUNTOS, Sierra, -2.2, -78.8, 2793, 60253, -2.23,  -78.78,  2793.00,  5403\n
GUAYAQUIL, Costa, -2.3, -80, 11, 90150, -2.33,  -80.04,  11.00,  2582\n
GUAYAS_(PUEBLO_NUEVO), Costa, -0.9, -79.6, 75, 90851, -0.94,  -79.61,  75.00,  2198\n
GUAYLLABAMBA, Sierra, -0.1, -78.3, 2146, 170163, -0.05,  -78.34,  2146.00,  4889\n
GUAYQUICHUMA, Sierra, -3.9, -79.5, 2164, 110352, -3.86,  -79.52,  2164.00,  5021\n
GUAYZIMI, Oriente, -4.1, -78.7, 941, 190350, -4.07,  -78.68,  941.00,  3847\n
GUEL, Sierra, -3, -78.8, 2657, 10953, -3.03,  -78.76,  2657.00,  5438\n
GUIZHAGUINNA, Costa, -3.7, -79.5, 2341, 71354, -3.66,  -79.47,  2341.00,  5190\n
HONORATO_VASQUEZ_(CAB_EN_VASQUEZ), Costa, -1.1, -80.1, 185, 131352, -1.11,  -80.14,  185.00,  2165\n
HONORATO_VASQUEZ_(TAMBO_VIEJO), Sierra, -2.6, -78.9, 3102, 30355, -2.60,  -78.87,  3102.00,  5703\n
HUACA, Sierra, 0.6, -77.7, 2915, 40650, 0.63,  -77.72,  2915.00,  5431\n
HUACHI_GRANDE, Sierra, -1.3, -78.6, 2896, 180155, -1.31,  -78.64,  2896.00,  5460\n
HUAMBI, Oriente, -2.6, -78.1, 924, 140652, -2.56,  -78.13,  924.00,  3807\n
HUAMBOYA, Oriente, -1.9, -77.9, 951, 140750, -1.92,  -77.92,  951.00,  3979\n
HUAQUILLAS, Costa, -3.5, -80.2, 1, 70750, -3.46,  -80.19,  1.00,  2567\n
HUASAGA_(CAB_EN_WAMPUIK), Oriente, -2.5, -77, 285, 140951, -2.53,  -77.04,  285.00,  3047\n
HUERTAS, Costa, -3.6, -79.6, 1878, 71355, -3.58,  -79.60,  1878.00,  3482\n
HUIGRA, Sierra, -2.3, -79, 2256, 60254, -2.28,  -79.00,  2256.00,  5611\n
ILAPO, Sierra, -1.5, -78.6, 3260, 60752, -1.55,  -78.58,  3260.00,  5824\n
IMANTAG, Sierra, 0.4, -78.3, 3902, 100353, 0.45,  -78.35,  3902.00,  6301\n
IMBANA_(LA_VICTORIA_DE_IMBANA), Oriente, -3.8, -79.1, 1970, 190153, -3.84,  -79.09,  1970.00,  4198\n
IMBAYA_(SAN_LUIS_DE_COBUENDO), Sierra, 0.4, -78.2, 2060, 100251, 0.38,  -78.16,  2060.00,  5164\n
INDANZA, Oriente, -3.1, -78.5, 1259, 140351, -3.05,  -78.48,  1259.00,  4133\n
INES_ARANGO_(CAB_EN_WESTERN), Oriente, -1, -76.8, 315, 220157, -0.98,  -76.82,  315.00,  2996\n
INGAPIRCA, Sierra, -2.5, -78.8, 3460, 30356, -2.52,  -78.82,  3460.00,  6049\n
ISIDRO_AYORA, Costa, -2, -80.2, 51, 92850, -1.96,  -80.16,  51.00,  2475\n
ISINLIVI, Sierra, -0.8, -78.9, 3265, 50752, -0.78,  -78.86,  3265.00,  5826\n
ISLA_DE_BEJUCAL, Costa, -1.7, -79.6, 5, 120252, -1.69,  -79.64,  5.00,  2506\n
ISLA_SANTA_MARIA_(FLOREANA)_(CAB_EN_PTO_VELASCO_IBAR, , -1.2, -90.2, 1000, 200152, -1.19,  -90.21,  1000.00,  3389\n
IZAMBA, Sierra, -1.2, -78.6, 2610, 180156, -1.22,  -78.57,  2610.00,  5378\n
JADAN, Sierra, -2.9, -78.9, 2946, 10353, -2.90,  -78.85,  2946.00,  5392\n
JAMA, Costa, -0.2, -80.2, 95, 132050, -0.22,  -80.23,  95.00,  2075\n
JAMBELI, Oriente, -3.4, -80.1, 0, 71252, -3.35,  -80.14,  0.00,  2569\n
JAMBELI1, , 0.2, -77.1, 365, 210157, 0.23,  -77.10,  365.00,  3006\n
JARAMIJO, Costa, -1, -80.6, 46, 132150, -0.98,  -80.60,  46.00,  1980\n
JAVIER_LOYOLA_(CHUQUIPATA), Sierra, -2.8, -78.9, 2520, 30154, -2.81,  -78.89,  2520.00,  5230\n
JERUSALEN, Sierra, -2.7, -79, 3414, 30254, -2.65,  -78.97,  3414.00,  5966\n
JESUS_MARIA, Costa, -2.6, -79.5, 23, 91151, -2.58,  -79.53,  23.00,  2443\n
JIJON_Y_CAAMANNO_(CAB_EN_RIO_BLANCO), Sierra, 0.8, -78.3, 1667, 40452, 0.84,  -78.32,  1667.00,  5097\n
JIMBILLA, Sierra, -3.9, -79.2, 2231, 110155, -3.87,  -79.18,  2231.00,  5088\n
JIMBURA, Sierra, -4.7, -79.4, 2593, 110652, -4.65,  -79.44,  2593.00,  5244\n
JIPIJAPA, Costa, -1.3, -80.6, 376, 130650, -1.30,  -80.56,  376.00,  2820\n
JOSEGUANGO_BAJO, Sierra, -0.8, -78.6, 2905, 50154, -0.82,  -78.60,  2905.00,  5466\n
JOSE_LUIS_TAMAYO_(MUEY), Costa, -2.3, -80.9, 19, 240352, -2.28,  -80.90,  19.00,  2527\n
JUAN_BAUTISTA_AGUIRRE_(LOS_TINTOS), Costa, -1.9, -79.9, 2, 90652, -1.89,  -79.87,  2.00,  2546\n
JUAN_BENIGNO_VELA, Sierra, -1.3, -78.7, 3431, 180157, -1.34,  -78.72,  3431.00,  6128\n
JUAN_DE_VELASCO_(PANGOR), Sierra, -1.9, -78.9, 3531, 60353, -1.86,  -78.91,  3531.00,  6256\n
JUAN_GOMEZ_RENDON_(PROGRESO), Costa, -2.4, -80.3, 100, 90152, -2.40,  -80.33,  100.00,  2596\n
JUAN_MONTALVO_(SAN_IGNACIO_DE_QUIL), Sierra, 0.6, -78.1, 2156, 40453, 0.56,  -78.10,  2156.00,  5063\n
JULCUY, Costa, -1.5, -80.6, 236, 130653, -1.50,  -80.64,  236.00,  2596\n
JULIO_ANDRADE_(OREJUELA), Sierra, 0.7, -77.7, 3039, 40153, 0.69,  -77.71,  3039.00,  5617\n
JULIO_E_MORENO_(CATANAHUAN_GRANDE), Sierra, -1.6, -79.1, 2057, 20153, -1.57,  -79.09,  2057.00,  5827\n
JUNCAL, Sierra, -2.4, -78.9, 3910, 30357, -2.44,  -78.89,  3910.00,  6626\n
JUNIN, Costa, -0.9, -80.2, 63, 130750, -0.94,  -80.19,  63.00,  2024\n
JUNQUILLAL, Costa, -1.7, -79.9, 5, 91953, -1.73,  -79.86,  5.00,  2478\n
LAGARTO, Costa, 1, -79.2, 86, 80753, 1.01,  -79.22,  86.00,  2337\n
LAGO_SAN_PEDRO, Oriente, -0.2, -76.9, 301, 220355, -0.25,  -76.93,  301.00,  2976\n
LARAMA, Sierra, -4.3, -79.9, 1165, 110851, -4.25,  -79.90,  1165.00,  4010\n
LASCANO, Costa, -1.5, -80.3, 96, 131054, -1.52,  -80.25,  96.00,  2233\n
LAS_GOLONDRINAS, Costa, 0.3, -79.1, 356, 900151, 0.32,  -79.07,  356.00,  3050\n
LAS_NAVES, Sierra, -1.3, -79.3, 426, 20750, -1.29,  -79.29,  426.00,  3006\n
LAS_NIEVES_(CHAYA), Sierra, -3.3, -79.2, 3251, 10453, -3.31,  -79.15,  3251.00,  5764\n
LAS_PAMPAS, Sierra, -0.5, -79, 1469, 50753, -0.47,  -78.97,  1469.00,  4909\n
LATACUNGA, Sierra, -0.9, -78.5, 3154, 50150, -0.92,  -78.54,  3154.00,  5700\n
LAUREL, Costa, -1.8, -79.9, 3, 90653, -1.81,  -79.92,  3.00,  2482\n
LAURO_GUERRERO, Sierra, -3.9, -79.8, 1904, 110954, -3.94,  -79.79,  1904.00,  3329\n
LA_AVANZADA, Costa, -3.6, -79.9, 142, 71253, -3.57,  -79.95,  142.00,  2367\n
LA_BELLEZA, Oriente, -0.8, -77.1, 340, 220158, -0.77,  -77.07,  340.00,  3004\n
LA_BOCANA, Costa, -3.7, -79.9, 269, 71052, -3.70,  -79.90,  269.00,  2745\n
LA_BONITA, Oriente, 0.5, -77.6, 2599, 210550, 0.51,  -77.57,  2599.00,  5458\n
LA_CANDELARIA, Sierra, -1.6, -78.4, 3902, 60955, -1.64,  -78.44,  3902.00,  6566\n
LA_CANELA, Oriente, -4.7, -78.9, 2192, 190854, -4.68,  -78.92,  2192.00,  5620\n
LA_CHONTA, Oriente, -4.9, -79.1, 1300, 190254, -4.95,  -79.09,  1300.00,  4443\n
LA_CONCORDIA, Costa, -0, -79.4, 226, 80850, -0.00,  -79.38,  226.00,  2729\n
LA_ESPERANZA, Sierra, 0.3, -78.1, 2851, 100154, 0.27,  -78.13,  2851.00,  5188\n
LA_ESPERANZA1, , 0.1, -78.3, 3023, 170451, 0.06,  -78.26,  3023.00,  5309\n
LA_ESPERANZA2, , -1, -79.4, 100, 120555, -0.98,  -79.41,  100.00,  2245\n
LA_IBERIA, Costa, -3.2, -79.9, 14, 70652, -3.24,  -79.88,  14.00,  2284\n
LA_JOYA_DE_LOS_SACHAS, Oriente, -3.1, -76.8, 268, 220350, -3.09,  -76.84,  268.00,  2661\n
LA_LIBERTAD, Costa, -2.2, -80.9, 29, 240250, -2.24,  -80.89,  29.00,  2600\n
LA_LIBERTAD1, , -3.9, -80.1, 799, 71451, -3.85,  -80.11,  799.00,  3540\n
LA_LIBERTAD_(ALIZO), Sierra, 0.7, -78, 3534, 40352, 0.71,  -77.96,  3534.00,  6015\n
LA_MANA, Sierra, -0.9, -79.2, 225, 50250, -0.93,  -79.23,  225.00,  2608\n
LA_MERCED, Sierra, -0.3, -78.4, 2540, 170164, -0.29,  -78.39,  2540.00,  5143\n
LA_MERCED_DE_BUENOS_AIRES, Sierra, 0.6, -78.4, 2287, 100652, 0.64,  -78.38,  2287.00,  5383\n
LA_PAZ, Sierra, 0.5, -77.8, 2700, 40554, 0.52,  -77.85,  2700.00,  5327\n
LA_PAZ1, , -3.8, -79, 1391, 190451, -3.75,  -78.95,  1391.00,  4253\n
LA_PEANNA, Costa, -3.3, -79.9, 21, 70953, -3.31,  -79.85,  21.00,  2187\n
LA_PILA, Costa, -1.1, -80.6, 253, 130952, -1.14,  -80.59,  253.00,  2455\n
LA_PROVIDENCIA, Sierra, -1.6, -78.5, 2612, 60753, -1.57,  -78.55,  2612.00,  5289\n
LA_SOFIA, Oriente, 0.3, -77.7, 2101, 210552, 0.33,  -77.69,  2101.00,  5662\n
LA_TINGUE, Sierra, -3.9, -79.6, 1369, 111651, -3.94,  -79.56,  1369.00,  4102\n
LA_TOLA, Costa, 1.1, -79.1, 6, 80254, 1.14,  -79.06,  6.00,  2327\n
LA_TRONCAL, Sierra, -2.4, -79.3, 98, 30450, -2.44,  -79.33,  98.00,  2407\n
LA_UNION, Costa, -2.9, -78.8, 2938, 11152, -2.94,  -78.75,  2938.00,  5426\n
LA_UNION1, , -1.7, -79.4, 11, 120155, -1.72,  -79.38,  11.00,  2435\n
LA_UNION2, , 0.2, -79.4, 163, 80455, 0.15,  -79.43,  163.00,  2230\n, -0.60,  -79.42,  163.00,  2187\n
LA_UNION2, , 0.2, -79.4, 163, 80455, 0.15,  -79.43,  163.00,  2230\n, -0.60,  -79.42,  163.00,  2187\n
LA_UNION3, , -1.4, -80.5, 468, 130654, -1.44,  -80.45,  468.00,  2982\n
LA_UNION4, , 0.7, -79.8, 140, 80651, 0.73,  -79.84,  140.00,  2329\n
LA_UNION5, , -1.2, -80.2, 75, 131353, -1.22,  -80.17,  75.00,  2095\n
LA_VICTORIA, Sierra, -0.9, -78.7, 3017, 50455, -0.91,  -78.70,  3017.00,  5679\n
LA_VICTORIA1, , -3.8, -80.1, 442, 71450, -3.79,  -80.09,  442.00,  3065\n
LA_VICTORIA2, , -4.5, -79.8, 1550, 110852, -4.45,  -79.80,  1550.00,  4514\n
LA_VICTORIA_(NNAUZA), Costa, -1.9, -79.7, 8, 91952, -1.89,  -79.73,  8.00,  2511\n
LICAN, Sierra, -1.6, -78.7, 2978, 60155, -1.64,  -78.71,  2978.00,  5563\n
LICTO, Sierra, -1.8, -78.6, 2986, 60156, -1.80,  -78.62,  2986.00,  5666\n
LIMONAL, Costa, -1.8, -80, 5, 90654, -1.81,  -80.01,  5.00,  2521\n
LIMONCOCHA, Oriente, -0.4, -76.5, 258, 210451, -0.39,  -76.52,  258.00,  2965\n
LIMONES, Sierra, -4.4, -80.4, 229, 111353, -4.36,  -80.38,  229.00,  3098\n
LINARES, Oriente, -0.4, -77.7, 2560, 150452, -0.41,  -77.67,  2560.00,  5614\n
LITA, Sierra, 0.8, -78.4, 1521, 100155, 0.78,  -78.38,  1521.00,  4833\n
LLACAO, Sierra, -2.8, -78.9, 2541, 10156, -2.84,  -78.93,  2541.00,  5237\n
LLAGOS, Sierra, -2.4, -79, 2817, 60554, -2.37,  -78.97,  2817.00,  5528\n
LLANO_CHICO, Sierra, -0.1, -78.4, 2601, 170165, -0.13,  -78.44,  2601.00,  4972\n
LLIGUA, Sierra, -1.4, -78.4, 2416, 180251, -1.38,  -78.45,  2416.00,  5263\n
LLOA, Sierra, -0.2, -78.7, 2752, 170166, -0.21,  -78.69,  2752.00,  5455\n
LLUZHAPA, Sierra, -3.5, -79.3, 2398, 111153, -3.49,  -79.33,  2398.00,  5094\n
LOGRONNO, Oriente, -2.6, -78.2, 672, 141050, -2.61,  -78.22,  672.00,  3424\n
LOJA, Sierra, -4, -79.2, 2071, 110150, -3.99,  -79.20,  2071.00,  4789\n
LOMAS_DE_SARGENTILLO, Costa, -1.9, -80.1, 14, 92450, -1.85,  -80.08,  14.00,  2435\n
LORETO, Oriente, -0.7, -77.3, 402, 220450, -0.66,  -77.28,  402.00,  3108\n
LOS_ANDES, Sierra, 0.5, -78, 2634, 40252, 0.48,  -77.96,  2634.00,  5388\n
LOS_ANDES_(CAB_EN_POATUG), Sierra, -1.2, -78.5, 2952, 180552, -1.25,  -78.49,  2952.00,  5557\n
LOS_ENCUENTROS, Oriente, -3.8, -78.6, 1504, 190553, -3.79,  -78.56,  1504.00,  4338\n
LOS_LOJAS_(ENRIQUE_BAQUERIZO_MORENO), Costa, -2, -79.9, 3, 90656, -1.98,  -79.92,  3.00,  2563\n
LUDO, Sierra, -3.1, -78.9, 2733, 10954, -3.09,  -78.88,  2733.00,  5457\n
LUIS_CORDERO, Sierra, -2.7, -78.8, 2831, 30155, -2.74,  -78.81,  2831.00,  5308\n
LUIS_CORDERO_VEGA, Sierra, -2.9, -78.7, 3449, 10359, -2.94,  -78.69,  3449.00,  5949\n
LUIS_GALARZA_ORELLANA_(CAB_EN_DELEGSOL), Sierra, -3, -78.7, 3443, 11153, -3.00,  -78.71,  3443.00,  6051\n
LUIS_VARGAS_TORRES_(CAB_EN_PLAYA_DE_ORO), Costa, 0.6, -78.7, 749, 80255, 0.58,  -78.70,  749.00,  2731\n
LUMBAQUI, Oriente, 0.1, -77.4, 522, 210250, 0.07,  -77.40,  522.00,  3320\n
LUZ_DE_AMERICA, Sierra, -0.5, -79.3, 231, 230153, -0.46,  -79.34,  231.00,  2580\n
MACARA, Sierra, -4.3, -80, 629, 110850, -4.32,  -79.96,  629.00,  3492\n
MACAS, Oriente, -2.3, -78.2, 1309, 140150, -2.30,  -78.15,  1309.00,  3260\n
MACHACHI, Sierra, -0.6, -78.5, 3897, 170350, -0.58,  -78.46,  3897.00,  6353\n
MACHALA, Costa, -3.3, -79.9, 9, 70150, -3.29,  -79.94,  9.00,  2223\n
MACHALILLA, Costa, -1.5, -80.7, 155, 131951, -1.47,  -80.74,  155.00,  2175\n
MACUMA, Oriente, -2.2, -77.7, 599, 140952, -2.15,  -77.66,  599.00,  3336\n
MADRE_TIERRA, Oriente, -1.6, -78, 870, 160251, -1.61,  -78.01,  870.00,  3810\n
MAGDALENA_(CHAPACOTO), Sierra, -1.7, -79.1, 2719, 20353, -1.67,  -79.09,  2719.00,  6135\n
MAJUA, Costa, 0.7, -79.5, 92, 80159, 0.67,  -79.50,  92.00,  2249\n
MALACATOS_(VALLADOLID), Sierra, -4.2, -79.2, 1935, 110156, -4.19,  -79.24,  1935.00,  3412\n
MALCHINGUI, Sierra, 0, -78.4, 2624, 170452, 0.03,  -78.36,  2624.00,  5028\n
MALDONADO, Costa, 0.8, -78, 2590, 40154, 0.83,  -78.04,  2590.00,  5307\n
MALDONADO1, , 1, -78.9, 29, 80256, 1.05,  -78.90,  29.00,  2344\n
MALIMPIA, Costa, 0.4, -79.2, 172, 80453, 0.44,  -79.20,  172.00,  2330\n
MALVAS, Costa, -3.7, -79.6, 1098, 71356, -3.67,  -79.63,  1098.00,  3869\n
MANGAHURCO_(CAZADEROS), Sierra, -4.1, -80.4, 763, 111351, -4.08,  -80.40,  763.00,  3635\n
MANGA_DEL_CURA, Costa, -0.7, -79.6, 90, 900351, -0.68,  -79.59,  90.00,  2180\n
MANGLARALTO, Costa, -1.8, -80.7, 228, 240154, -1.79,  -80.69,  228.00,  2695\n
MANTA, Costa, -1, -80.8, 130, 130850, -1.01,  -80.77,  130.00,  1984\n
MANU, Sierra, -3.5, -79.4, 3365, 111154, -3.53,  -79.43,  3365.00,  6016\n
MANUEL_CORNEJO_ASTORGA_(TANDAPI), Sierra, -0.4, -78.8, 2153, 170355, -0.41,  -78.78,  2153.00,  5297\n
MANUEL_J_CALLE, Sierra, -2.4, -79.4, 43, 30451, -2.38,  -79.40,  43.00,  2480\n
MARCABELI, Costa, -3.8, -79.9, 583, 70850, -3.79,  -79.93,  583.00,  3272\n
MARCOS_ESPINEL_(CHACATA), Sierra, -1.2, -78.4, 3840, 180853, -1.15,  -78.42,  3840.00,  6491\n
MARIANO_ACOSTA, Sierra, 0.2, -78, 3382, 100552, 0.24,  -77.99,  3382.00,  5990\n
MARIANO_MORENO, Sierra, -2.8, -78.7, 2789, 10354, -2.84,  -78.73,  2789.00,  5281\n
MARISCAL_SUCRE, Sierra, 0.6, -77.7, 3402, 40651, 0.59,  -77.70,  3402.00,  5974\n
MARISCAL_SUCRE_(HUAQUES), Costa, -2.1, -79.5, 17, 91053, -2.08,  -79.51,  17.00,  2424\n
MATAJE_(CAB_EN_SANTANDER), Costa, 1.3, -78.6, 145, 80557, 1.25,  -78.64,  145.00,  2500\n
MATUS, Sierra, -1.6, -78.4, 3605, 60952, -1.59,  -78.44,  3605.00,  6284\n
MEMBRILLO, Costa, -0.9, -79.9, 150, 130251, -0.87,  -79.94,  150.00,  2096\n
MEMBRILLAL, Costa, -1.2, -80.7, 223, 130656, -1.24,  -80.67,  223.00,  2411\n
MERA, Oriente, -1.3, -78.1, 1303, 160250, -1.34,  -78.06,  1303.00,  3872\n
MERCADILLO, Sierra, -4, -79.9, 1495, 111054, -4.02,  -79.94,  1495.00,  4290\n
MILAGRO, Costa, -2.1, -79.6, 10, 91050, -2.14,  -79.64,  10.00,  2517\n, -2.10,  -79.58,  10.00,  2471\n
MILAGRO, Costa, -2.1, -79.6, 10, 91050, -2.14,  -79.64,  10.00,  2517\n, -2.10,  -79.58,  10.00,  2471\n
MILAGRO1, , -3.6, -79.7, 1240, 70353, -3.62,  -79.67,  1240.00,  4039\n
MINDO, Sierra, -0.1, -78.7, 1726, 170751, -0.06,  -78.74,  1726.00,  5293\n
MIRA_(CHONTAHUASI), Sierra, 0.6, -78.1, 2539, 40450, 0.56,  -78.05,  2539.00,  5050\n
MOCACHE, Costa, -1.2, -79.5, 37, 121250, -1.19,  -79.55,  37.00,  2355\n
MOCHA, Sierra, -1.4, -78.7, 3814, 180450, -1.42,  -78.70,  3814.00,  6279\n
MOLLETURO, Sierra, -2.7, -79.4, 1870, 10157, -2.72,  -79.40,  1870.00,  5257\n
MONTALVO, Sierra, -1.8, -79.3, 27, 120350, -1.80,  -79.32,  27.00,  2324\n
MONTALVO1, , -1.3, -78.6, 2870, 180158, -1.33,  -78.62,  2870.00,  5422\n
MONTALVO_(ANDOAS), Oriente, -1.9, -76.9, 356, 160156, -1.93,  -76.92,  356.00,  3161\n
MONTALVO_(CAB_EN_HORQUETA), Costa, 0.9, -79.3, 198, 80754, 0.89,  -79.29,  198.00,  2421\n
MONTECRISTI, Costa, -1.1, -80.7, 95, 130950, -1.13,  -80.72,  95.00,  2025\n
MONTE_OLIVO, Sierra, 0.4, -77.8, 3064, 40253, 0.40,  -77.84,  3064.00,  5744\n
MORALES, Costa, -3.7, -79.5, 2275, 71152, -3.70,  -79.46,  2275.00,  5162\n
MORASPUNGO, Sierra, -1.1, -79.2, 826, 50351, -1.09,  -79.22,  826.00,  3871\n
MOROMORO_(CAB_EN_EL_VADO), Costa, -3.7, -79.8, 934, 71053, -3.67,  -79.76,  934.00,  3659\n
MORRO, Costa, -2.6, -80.3, 17, 90153, -2.57,  -80.32,  17.00,  2572\n
MUISNE, Costa, 0.6, -79.9, 35, 80350, 0.61,  -79.95,  35.00,  2241\n
MULALILLO, Sierra, -1.1, -78.6, 3026, 50553, -1.10,  -78.64,  3026.00,  5752\n
MULALO, Sierra, -0.7, -78.5, 3503, 50156, -0.73,  -78.51,  3503.00,  6020\n
MULLIQUINDIL_(SANTA_ANA), Sierra, -1, -78.5, 3089, 50554, -1.02,  -78.54,  3089.00,  5773\n
MULTITUD, Sierra, -2.1, -79, 2269, 60255, -2.14,  -78.99,  2269.00,  5597\n
MULUNCAY_GRANDE, Costa, -3.6, -79.6, 1137, 71357, -3.64,  -79.64,  1137.00,  3954\n
NABON, Sierra, -3.3, -79, 2824, 10450, -3.28,  -79.04,  2824.00,  5284\n
NAMBACOLA, Sierra, -4.1, -79.4, 1603, 110753, -4.10,  -79.43,  1603.00,  4349\n
NANEGAL, Sierra, 0.1, -78.6, 1385, 170168, 0.12,  -78.63,  1385.00,  4823\n
NANEGALITO, Sierra, 0, -78.7, 1818, 170169, 0.05,  -78.72,  1818.00,  5335\n
NARANJAL, Costa, -2.7, -79.6, 24, 91150, -2.71,  -79.64,  24.00,  2480\n
NARANJITO, Costa, -2.2, -79.4, 46, 91250, -2.15,  -79.40,  46.00,  2387\n
NARCISA_DE_JESUS, Costa, -2, -80, 8, 92550, -1.97,  -80.05,  8.00,  2513\n
NAYON, Sierra, -0.2, -78.4, 2420, 170170, -0.17,  -78.43,  2420.00,  4971\n
NAZON_(CAB_EN_PAMPA_DE_DOMINGUEZ), Sierra, -2.7, -79, 3618, 30251, -2.69,  -79.01,  3618.00,  6362\n
NOBOA, Costa, -1.4, -80.4, 405, 131652, -1.45,  -80.39,  405.00,  2858\n
NONO, Sierra, -0.1, -78.6, 2726, 170171, -0.05,  -78.60,  2726.00,  5266\n
NUEVA_FATIMA, Sierra, -4.3, -79.8, 1539, 111251, -4.27,  -79.82,  1539.00,  4386\n
NUEVA_LOJA, Oriente, 0.1, -76.9, 311, 210150, 0.13,  -76.91,  311.00,  3058\n
NUEVA_TARQUI, Oriente, -3.4, -78.7, 1368, 140256, -3.44,  -78.68,  1368.00,  4205\n
NUEVO_PARAISO, Oriente, -4.5, -78.8, 1469, 190352, -4.49,  -78.80,  1469.00,  4551\n
NUEVO_PARAISO_(CAB_EN_UNION_), Oriente, -0.3, -77.1, 272, 220159, -0.34,  -77.12,  272.00,  2871\n
NUEVO_QUITO, Oriente, -4, -78.6, 1675, 190952, -4.01,  -78.60,  1675.00,  4581\n
NUEVO_ROCAFUERTE, Oriente, -1, -75.6, 220, 220250, -1.01,  -75.60,  220.00,  2704\n
NULTI, Sierra, -2.9, -78.9, 2531, 10158, -2.86,  -78.89,  2531.00,  5235\n
OCTAVIO_CORDERO_PALACIOS_(STA_ROSA), Sierra, -2.8, -79, 2821, 10159, -2.77,  -78.97,  2821.00,  5407\n
OLMEDO, Costa, -3.9, -79.6, 1518, 111650, -3.94,  -79.63,  1518.00,  4321\n
OLMEDO1, , -1.4, -80.2, 153, 131850, -1.36,  -80.21,  153.00,  2154\n
OLMEDO_(PESILLO), Sierra, 0.1, -78, 3941, 170253, 0.07,  -77.98,  3941.00,  6637\n
ORIANGA, Sierra, -3.9, -79.9, 1252, 110956, -3.88,  -79.89,  1252.00,  4092\n
OTAVALO, Sierra, 0.2, -78.3, 2661, 100450, 0.22,  -78.27,  2661.00,  5191\n
OTON, Sierra, -0, -78.3, 2805, 170254, -0.02,  -78.25,  2805.00,  5017\n
OYACACHI, Oriente, -0.2, -78, 3193, 150453, -0.19,  -77.96,  3193.00,  5902\n
PABLO_ARENAS, Sierra, 0.5, -78.2, 2583, 100653, 0.49,  -78.22,  2583.00,  5260\n
PABLO_SEXTO, Oriente, -1.9, -78.3, 2849, 141150, -1.86,  -78.28,  2849.00,  5689\n
PACAYACU, Oriente, 0.1, -76.5, 303, 210156, 0.11,  -76.50,  303.00,  2675\n
PACCHA, Sierra, -3.6, -79.7, 1552, 70350, -3.56,  -79.66,  1552.00,  4373\n
PACCHA1, , -2.9, -78.9, 2807, 10160, -2.90,  -78.93,  2807.00,  5372\n
PACHICUTZA, Oriente, -3.7, -78.6, 881, 190652, -3.68,  -78.59,  881.00,  3586\n
PACTO, Sierra, 0.2, -78.8, 1374, 170172, 0.16,  -78.84,  1374.00,  5025\n
PAJAN, Costa, -1.6, -80.5, 277, 131050, -1.55,  -80.47,  277.00,  2606\n
PALANDA, Oriente, -4.7, -79.2, 2189, 190850, -4.66,  -79.23,  2189.00,  5436\n
PALENQUE, Costa, -1.3, -79.7, 35, 120950, -1.33,  -79.72,  35.00,  2375\n
PALESTINA, Costa, -1.6, -79.9, 19, 91350, -1.64,  -79.92,  19.00,  2473\n
PALETILLAS, Sierra, -4.1, -80.3, 607, 111354, -4.14,  -80.25,  607.00,  3451\n
PALLATANGA, Sierra, -2, -78.9, 1958, 60850, -2.02,  -78.93,  1958.00,  5195\n
PALMALES, Costa, -3.7, -80.1, 93, 70254, -3.70,  -80.11,  93.00,  2509\n
PALMAS, Sierra, -2.7, -78.6, 2883, 11352, -2.70,  -78.60,  2883.00,  5330\n
PALMA_ROJA, Oriente, 0.1, -76.2, 259, 210351, 0.11,  -76.21,  259.00,  2701\n
PALMIRA, Sierra, -2.1, -78.8, 3294, 60652, -2.08,  -78.75,  3294.00,  5865\n
PALORA_(METZERA), Oriente, -1.7, -78, 883, 140450, -1.70,  -78.00,  883.00,  3877\n
PALO_QUEMADO, Sierra, -0.4, -78.9, 1497, 50754, -0.43,  -78.91,  1497.00,  4909\n
PAMPANAL_DE_BOLIVAR, Costa, 1.3, -78.9, 8, 80257, 1.31,  -78.92,  8.00,  2424\n
PANCHO_NEGRO, Sierra, -2.5, -79.4, 53, 30452, -2.47,  -79.42,  53.00,  2359\n
PANNACOCHA, Oriente, -0.4, -76.1, 280, 210452, -0.42,  -76.06,  280.00,  2992\n
PANO, Oriente, -0.9, -78.2, 3507, 150154, -0.91,  -78.16,  3507.00,  6316\n
PANSALEO, Sierra, -1.1, -78.6, 2648, 50555, -1.09,  -78.58,  2648.00,  5428\n
PAN_DE_AZUCAR, Oriente, -3.1, -78.5, 1626, 140851, -3.07,  -78.53,  1626.00,  3574\n
PAPALLACTA, Oriente, -0.4, -78.2, 3764, 150753, -0.37,  -78.16,  3764.00,  6243\n
PAQUISHA, Oriente, -3.9, -78.6, 1523, 190950, -3.92,  -78.58,  1523.00,  4383\n
PASA, Sierra, -1.2, -78.7, 3509, 180159, -1.24,  -78.74,  3509.00,  6058\n
PASAJE, Costa, -3.4, -79.8, 113, 70950, -3.38,  -79.77,  113.00,  2286\n
PATAQUI, Sierra, 0.2, -78.4, 3015, 100454, 0.19,  -78.36,  3015.00,  5380\n
PATATE, Sierra, -1.3, -78.5, 2492, 180550, -1.33,  -78.48,  2492.00,  5375\n
PATRICIA_PILAR, Costa, -0.6, -79.4, 163, 121051, -0.60,  -79.42,  163.00,  2187\n
PATUCA, Oriente, -2.8, -78.2, 1227, 140553, -2.84,  -78.21,  1227.00,  4122\n
PAUTE, Sierra, -2.8, -78.8, 2664, 10550, -2.79,  -78.78,  2664.00,  5204\n
PEDERNALES, Costa, 0.1, -79.9, 360, 131750, 0.07,  -79.86,  360.00,  2862\n
PEDRO_CARBO, Costa, -1.8, -80.3, 102, 91450, -1.83,  -80.32,  102.00,  2482\n
PEDRO_PABLO_GOMEZ, Costa, -1.7, -80.6, 609, 130657, -1.69,  -80.57,  609.00,  3403\n
PEDRO_VICENTE_MALDONADO, Sierra, 0.1, -79.1, 512, 170850, 0.15,  -79.06,  512.00,  3303\n
PELILEO, Sierra, -1.3, -78.5, 2574, 180750, -1.35,  -78.53,  2574.00,  5318\n
PENIPE, Sierra, -1.6, -78.5, 3177, 60950, -1.58,  -78.51,  3177.00,  5713\n
PENNAHERRERA, Sierra, 0.4, -78.6, 2038, 100354, 0.36,  -78.59,  2038.00,  5252\n
PERUCHO, Sierra, 0.1, -78.4, 2071, 170174, 0.11,  -78.42,  2071.00,  5106\n
PIARTAL, Sierra, 0.6, -77.8, 3153, 40555, 0.55,  -77.75,  3153.00,  5785\n
PICAIGUA, Sierra, -1.3, -78.6, 2616, 180160, -1.28,  -78.58,  2616.00,  5320\n
PICHINCHA, Costa, -1, -79.8, 106, 131150, -0.95,  -79.85,  106.00,  2097\n
PIEDRAS, Costa, -3.6, -79.9, 185, 71054, -3.63,  -79.91,  185.00,  2458\n
PIFO, Sierra, -0.3, -78.3, 3943, 170175, -0.28,  -78.27,  3943.00,  6215\n
PILAGUIN_(PILAHUIN), Sierra, -1.3, -78.8, 3972, 180161, -1.35,  -78.83,  3972.00,  6555\n
PILALO, Sierra, -1, -79, 2883, 50456, -1.00,  -79.00,  2883.00,  5933\n
PILLARO, Sierra, -1.2, -78.5, 3043, 180850, -1.16,  -78.51,  3043.00,  5718\n
PIMAMPIRO, Sierra, 0.4, -77.9, 2376, 100550, 0.36,  -77.95,  2376.00,  5347\n
PIMOCHA, Costa, -1.8, -79.6, 3, 120154, -1.78,  -79.57,  3.00,  2490\n
PINDAL, Sierra, -4.1, -80.1, 737, 111450, -4.13,  -80.11,  737.00,  3524\n
PINDILIG, Sierra, -2.6, -78.7, 3129, 30156, -2.60,  -78.72,  3129.00,  5592\n
PINGUILI, Sierra, -1.4, -78.6, 3054, 180451, -1.39,  -78.63,  3054.00,  5694\n
PINLLOPATA, Sierra, -1.1, -79, 2419, 50352, -1.15,  -79.00,  2419.00,  5714\n
PINNAS, Costa, -3.7, -79.7, 1112, 71050, -3.67,  -79.70,  1112.00,  3848\n
PINTAG, Sierra, -0.4, -78.3, 3401, 170176, -0.45,  -78.34,  3401.00,  5896\n
PIOTER, Sierra, 0.7, -77.8, 2955, 40155, 0.65,  -77.78,  2955.00,  5278\n
PISTISHI_(NARIZ_DEL_DIABLO), Sierra, -2.3, -78.9, 2473, 60256, -2.26,  -78.88,  2473.00,  5424\n
PLAZA_GUTIERREZ_(CALVARIO), Sierra, 0.3, -78.4, 2978, 100355, 0.34,  -78.42,  2978.00,  5367\n
POALO, Sierra, -0.9, -78.7, 3442, 50158, -0.88,  -78.71,  3442.00,  5936\n
POMASQUI, Sierra, -0, -78.5, 2481, 170177, -0.05,  -78.46,  2481.00,  4914\n, 0.19,  -78.49,  2481.00,  5236\n
POMASQUI, Sierra, -0, -78.5, 2481, 170177, -0.05,  -78.46,  2481.00,  4914\n, 0.19,  -78.49,  2481.00,  5236\n
POMONA, Oriente, -1.6, -77.9, 928, 160157, -1.65,  -77.89,  928.00,  3918\n
POMPEYA, Oriente, -0.4, -76.7, 254, 220352, -0.42,  -76.68,  254.00,  2990\n
PORTOVELO, Costa, -3.7, -79.6, 736, 71150, -3.73,  -79.61,  736.00,  3416\n
PORTOVIEJO, Costa, -1.1, -80.5, 53, 130150, -1.08,  -80.46,  53.00,  1931\n
POSORJA, Costa, -2.7, -80.3, 18, 90156, -2.69,  -80.28,  18.00,  2546\n
POZUL_(SAN_JUAN_DE_POZUL), Sierra, -4.1, -80.1, 1597, 110455, -4.13,  -80.05,  1597.00,  4379\n
PRESIDENTE_URBINA_(CHAGRAPAMBA_-PATZUCUL), Sierra, -1.1, -78.6, 2833, 180854, -1.15,  -78.56,  2833.00,  5562\n
PRINCIPAL, Sierra, -3, -78.7, 3219, 11151, -3.02,  -78.72,  3219.00,  5793\n
PROGRESO, Costa, -3.3, -79.7, 527, 70954, -3.27,  -79.69,  527.00,  3250\n
PUCAPAMBA, Oriente, -4.9, -79.1, 1092, 190256, -4.95,  -79.12,  1092.00,  4212\n
PUCARA, Sierra, -3.2, -79.5, 2744, 10650, -3.18,  -79.53,  2744.00,  5772\n
PUCAYACU, Sierra, -0.7, -79.1, 1098, 50252, -0.67,  -79.08,  1098.00,  3408\n
PUEBLOVIEJO, Costa, -1.6, -79.5, 11, 120450, -1.59,  -79.48,  11.00,  2457\n, -1.55,  -79.54,  11.00,  2417\n
PUEBLOVIEJO, Costa, -1.6, -79.5, 11, 120450, -1.59,  -79.48,  11.00,  2457\n, -1.55,  -79.54,  11.00,  2417\n
PUEBLO_NUEVO, Costa, -1, -80.3, 201, 130154, -0.98,  -80.31,  201.00,  2033\n
PUELA, Sierra, -1.5, -78.4, 3738, 60953, -1.50,  -78.44,  3738.00,  6325\n
PUELLARO, Sierra, 0.1, -78.4, 2616, 170178, 0.08,  -78.38,  2616.00,  5190\n
PUEMBO, Sierra, -0.2, -78.4, 2385, 170179, -0.17,  -78.37,  2385.00,  4976\n
PUERTO_AYORA, , -0.7, -90.3, 1000, 200350, -0.74,  -90.31,  1000.00,  3467\n
PUERTO_BAQUERIZO_MORENO, , -0.9, -89.6, 1000, 200150, -0.91,  -89.61,  1000.00,  3364\n
PUERTO_BOLIVAR_(PUERTO_MONTUFAR), Oriente, -0, -76, 262, 210352, -0.05,  -76.03,  262.00,  2989\n
PUERTO_DE_CAYO, Costa, -1.3, -80.7, 218, 130658, -1.33,  -80.70,  218.00,  2467\n
PUERTO_EL_CARMEN_DEL_PUTUMAYO, Oriente, 0, -75.8, 232, 210350, 0.03,  -75.84,  232.00,  3010\n
PUERTO_FRANCISCO_DE_ORELLANA_(EL_COCA), Oriente, -0.4, -77, 247, 220150, -0.44,  -76.99,  247.00,  2925\n
PUERTO_LIBRE, Oriente, 0.1, -77.5, 985, 210254, 0.15,  -77.55,  985.00,  3462\n
PUERTO_LIMON, Sierra, -0.4, -79.4, 269, 230152, -0.35,  -79.36,  269.00,  2690\n
PUERTO_LOPEZ, Costa, -1.6, -80.7, 279, 131950, -1.60,  -80.74,  279.00,  2849\n
PUERTO_MISAHUALLI, Oriente, -1, -77.7, 762, 150155, -0.97,  -77.66,  762.00,  3681\n
PUERTO_MURIALDO, Oriente, -0.7, -77.2, 313, 220452, -0.65,  -77.17,  313.00,  2956\n
PUERTO_NAPO, Oriente, -1.1, -77.7, 456, 150156, -1.09,  -77.75,  456.00,  3250\n
PUERTO_PECHICHE, Costa, -1.4, -79.5, 25, 120451, -1.43,  -79.54,  25.00,  2439\n
PUERTO_QUITO, Sierra, 0.2, -79.2, 181, 170950, 0.16,  -79.24,  181.00,  2269\n
PUERTO_RODRIGUEZ, Oriente, -0.1, -75.5, 216, 210353, -0.10,  -75.45,  216.00,  2802\n
PUERTO_VILLAMIL, , -1, -91, 1000, 200250, -0.95,  -90.97,  1000.00,  3385\n
PUJILI, Sierra, -1, -78.7, 3307, 50450, -0.99,  -78.72,  3307.00,  5951\n
PUMALLACTA, Sierra, -2.3, -78.8, 3478, 60257, -2.28,  -78.81,  3478.00,  6181\n
PUMPUENTSA, Oriente, -2.6, -77.3, 265, 140954, -2.62,  -77.27,  265.00,  2973\n
PUNA, , -2.8, -80.1, 1000, 90157, -2.84,  -80.12,  1000.00,  3934\n
PUNGALA, Sierra, -1.9, -78.5, 4112, 60157, -1.86,  -78.50,  4112.00,  6700\n
PUNIN, Sierra, -1.8, -78.7, 3088, 60158, -1.76,  -78.67,  3088.00,  5669\n
PURUNUMA_(EGUIGUREN), Sierra, -4.2, -79.4, 2522, 110754, -4.22,  -79.36,  2522.00,  5193\n
PUYO, Oriente, -1.5, -78, 948, 160150, -1.47,  -77.99,  948.00,  3975\n
QUERO, Sierra, -1.4, -78.6, 3233, 180650, -1.43,  -78.59,  3233.00,  5863\n
QUEVEDO, Costa, -1, -79.5, 79, 120550, -1.02,  -79.48,  79.00,  2247\n
QUILANGA, Sierra, -4.3, -79.4, 1897, 111550, -4.29,  -79.41,  1897.00,  4645\n
QUIMIAG, Sierra, -1.7, -78.5, 3753, 60159, -1.68,  -78.52,  3753.00,  6406\n
QUINARA, Sierra, -4.4, -79.3, 2560, 110163, -4.39,  -79.27,  2560.00,  5328\n
QUINCHICOTO, Sierra, -1.4, -78.7, 3656, 180951, -1.38,  -78.69,  3656.00,  6228\n
QUINGEO, Sierra, -3.1, -78.9, 2932, 10161, -3.06,  -78.94,  2932.00,  5486\n
QUINGUE_(OLMEDO_PERDOMO_FRANCO), Costa, 0.7, -80.1, 99, 80354, 0.71,  -80.07,  99.00,  2223\n
QUINSALOMA, Costa, -1.1, -79.4, 70, 121350, -1.14,  -79.36,  70.00,  2269\n
QUIROGA, Sierra, -0.9, -80.1, 200, 130252, -0.93,  -80.08,  200.00,  2096\n
QUIROGA1, , 0.3, -78.4, 3287, 100455, 0.30,  -78.39,  3287.00,  5777\n
QUISAPINCHA_(QUIZAPINCHA), Sierra, -1.2, -78.7, 3583, 180162, -1.19,  -78.72,  3583.00,  6287\n
QUITO, Sierra, -0.2, -78.5, 3017, 170150, -0.21,  -78.52,  3017.00,  5470\n
RAMON_CAMPANNA, Sierra, -1.1, -79.1, 1857, 50353, -1.08,  -79.09,  1857.00,  5724\n
REGULO_DE_MORA, Sierra, -1.9, -79.2, 1761, 20553, -1.88,  -79.20,  1761.00,  5686\n
REMIGIO_CRESPO_TORAL_(GULAG), Sierra, -2.9, -78.7, 3058, 10356, -2.94,  -78.73,  3058.00,  5568\n
RICAURTE, Costa, -2.9, -79, 2552, 10162, -2.86,  -78.96,  2552.00,  5222\n
RICAURTE1, , -1.6, -79.4, 38, 120651, -1.56,  -79.38,  38.00,  2370\n
RICAURTE2, , -0.6, -80, 515, 130356, -0.56,  -79.95,  515.00,  3110\n
RIOBAMBA, Sierra, -1.7, -78.7, 2765, 60150, -1.67,  -78.66,  2765.00,  5431\n
RIOCHICO_(RIO_CHICO), Costa, -1, -80.4, 174, 130155, -0.99,  -80.39,  174.00,  2045\n
RIOVERDE, Costa, 1, -79.4, 7, 80750, 1.02,  -79.43,  7.00,  2295\n
RIO_BLANCO, Oriente, -2.4, -78.4, 3263, 140164, -2.38,  -78.38,  3263.00,  6137\n
RIO_BONITO, Costa, -3.1, -79.7, 391, 70654, -3.13,  -79.72,  391.00,  2963\n
RIO_CORRIENTES, Oriente, -2.3, -76.6, 277, 160158, -2.34,  -76.56,  277.00,  2802\n
RIO_NEGRO, Sierra, -1.3, -78.2, 1834, 180252, -1.30,  -78.22,  1834.00,  5150\n
RIO_TIGRE, Oriente, -1.9, -76.3, 210, 160159, -1.90,  -76.25,  210.00,  2871\n
RIO_VERDE, Sierra, -1.4, -78.3, 2217, 180253, -1.37,  -78.32,  2217.00,  5342\n
RIVERA, Sierra, -2.5, -78.7, 2769, 30157, -2.52,  -78.68,  2769.00,  5345\n
ROBERTO_ASTUDILLO_(CAB_EN_CRUCE_DE_VENECIA), Costa, -2.2, -79.5, 24, 91054, -2.17,  -79.51,  24.00,  2475\n
ROCAFUERTE, Costa, -0.9, -80.4, 32, 131250, -0.91,  -80.41,  32.00,  1956\n
ROCAFUERTE1, , 1, -79.4, 68, 80755, 0.97,  -79.37,  68.00,  2286\n
ROSA_FLORIDA, Oriente, 0.3, -77.5, 970, 210553, 0.35,  -77.51,  970.00,  3125\n
ROSA_ZARATE_(QUININDE), Costa, 0.2, -79.5, 97, 80450, 0.24,  -79.52,  97.00,  2235\n
RUMIPAMBA, Oriente, -0.1, -77, 319, 220356, -0.10,  -76.96,  319.00,  3024\n
RUMIPAMBA1, , -0.5, -78.4, 3349, 170552, -0.46,  -78.44,  3349.00,  5724\n
RUMIPAMBA2, , -1.5, -78.6, 3569, 180651, -1.45,  -78.63,  3569.00,  6220\n
SABANILLA, Costa, -1.9, -80.3, 64, 91452, -1.93,  -80.26,  64.00,  2439\n
SABANILLA1, , -4, -79.1, 2974, 190155, -4.00,  -79.06,  2974.00,  5653\n
SABANILLA2, , -4.2, -80.1, 578, 110456, -4.21,  -80.15,  578.00,  3440\n
SABIANGO_(LA_CAPILLA), Sierra, -4.4, -79.8, 753, 110853, -4.36,  -79.83,  753.00,  3561\n
SACAPALCA, Sierra, -4.1, -79.5, 1519, 110756, -4.15,  -79.53,  1519.00,  4275\n
SALANGO, Costa, -1.6, -80.8, 178, 131952, -1.64,  -80.80,  178.00,  2342\n
SALASACA, Sierra, -1.3, -78.6, 2723, 180758, -1.32,  -78.58,  2723.00,  5364\n
SALATI, Costa, -3.8, -79.5, 1514, 71153, -3.77,  -79.50,  1514.00,  4183\n
SALIMA, Costa, 0.3, -80, 1000, 80355, 0.33,  -79.96,  1000.00,  2919\n
SALINAS, Sierra, -2.2, -81, 5, 240350, -2.22,  -80.96,  5.00,  2628\n
SALINAS1, , 0.5, -78.1, 1636, 100156, 0.49,  -78.14,  1636.00,  4885\n
SALINAS2, , -1.4, -79.1, 2435, 20155, -1.38,  -79.11,  2435.00,  5961\n
SALVIAS, Costa, -3.6, -79.5, 2024, 71359, -3.59,  -79.52,  2024.00,  4459\n
SAMBORONDON, Costa, -2, -79.8, 6, 91650, -1.99,  -79.76,  6.00,  2486\n
SANGAY_(CAB_EN_NAYAMANACA), Oriente, -1.8, -78, 1045, 140454, -1.76,  -78.04,  1045.00,  4102\n
SANGOLQUI, Sierra, -0.4, -78.4, 2590, 170550, -0.35,  -78.44,  2590.00,  5120\n
SANGUILLIN, Sierra, -4.5, -79.5, 1904, 110254, -4.47,  -79.53,  1904.00,  4861\n
SANTA_ANA, Sierra, -3, -78.9, 2900, 10164, -2.97,  -78.91,  2900.00,  5383\n
SANTA_ANA_DE_VUELTA_LARGA, Costa, -1.2, -80.4, 132, 131350, -1.23,  -80.36,  132.00,  1999\n
SANTA_BARBARA, Oriente, 0.6, -77.5, 3199, 210554, 0.60,  -77.52,  3199.00,  5895\n
SANTA_CECILIA, Oriente, 0.1, -77, 332, 210158, 0.08,  -76.99,  332.00,  3064\n
SANTA_CLARA, Oriente, -1.3, -77.9, 868, 160350, -1.26,  -77.86,  868.00,  3806\n
SANTA_ELENA, Oriente, -2.2, -80.7, 90, 240150, -2.22,  -80.71,  90.00,  2575\n
SANTA_ELENA1, , 0.3, -76.3, 268, 210354, 0.33,  -76.27,  268.00,  2778\n
SANTA_FE_(SANTA_FE), Sierra, -1.6, -79, 2893, 20158, -1.61,  -79.03,  2893.00,  6063\n
SANTA_FE_DE_GALAN, Sierra, -1.5, -78.6, 3566, 60758, -1.50,  -78.57,  3566.00,  6114\n
SANTA_ISABEL_(CHAGUARURCO), Sierra, -3.3, -79.4, 1511, 10850, -3.30,  -79.36,  1511.00,  4249\n
SANTA_LUCIA, Costa, -1.7, -80, 9, 91850, -1.72,  -80.03,  9.00,  2497\n
SANTA_MARIANITA_(BOCA_DE_PACOCHE), Costa, -1, -80.8, 240, 130852, -1.01,  -80.85,  240.00,  2458\n
SANTA_MARIANITA_DE_JESUS, Oriente, -2.4, -78.2, 1161, 140655, -2.40,  -78.20,  1161.00,  4144\n
SANTA_MARIA_DEL_TOACHI, Sierra, -0.6, -79.2, 420, 230157, -0.58,  -79.23,  420.00,  3063\n
SANTA_MARIA_DE_HUIRIRIMA, Oriente, -0.7, -75.6, 212, 220253, -0.65,  -75.64,  212.00,  2731\n
SANTA_MARTHA_DE_CUBA, Sierra, 0.6, -77.8, 2832, 40161, 0.65,  -77.76,  2832.00,  5306\n
SANTA_RITA, Costa, 1.1, -78.7, 247, 80559, 1.05,  -78.67,  247.00,  2783\n
SANTA_ROSA, Oriente, -1.3, -78.7, 3125, 180165, -1.30,  -78.68,  3125.00,  5859\n
SANTA_ROSA1, , -3.4, -79.9, 8, 71250, -3.44,  -79.93,  8.00,  2193\n
SANTA_ROSA2, , -0.2, -77.8, 2546, 150454, -0.21,  -77.79,  2546.00,  5742\n
SANTA_ROSA3, , -0.5, -90.4, 1000, 200352, -0.48,  -90.45,  1000.00,  3529\n
SANTA_ROSA_DE_CUZUBAMBA, Sierra, -0, -78.3, 2576, 170255, -0.04,  -78.28,  2576.00,  5002\n
SANTA_ROSA_DE_FLANDES, Costa, -2.6, -79.7, 0, 91153, -2.63,  -79.68,  0.00,  2462\n
SANTA_ROSA_DE_SUCUMBIOS, Oriente, 0.2, -77.1, 409, 210651, 0.17,  -77.14,  409.00,  3001\n
SANTA_RUFINA, Sierra, -3.9, -79.8, 1062, 110553, -3.87,  -79.76,  1062.00,  3807\n
SANTA_TERESITA, Sierra, -4.5, -79.4, 2378, 110653, -4.53,  -79.38,  2378.00,  5082\n
SANTIAGO, Sierra, -1.7, -78.9, 3988, 20555, -1.73,  -78.94,  3988.00,  6717\n
SANTIAGO1, , -3, -78, 299, 141250, -3.03,  -78.04,  299.00,  2838\n
SANTIAGO2, , -3.8, -79.3, 2462, 110159, -3.80,  -79.29,  2462.00,  5326\n
SANTIAGO_DE_MENDEZ, Oriente, -2.6, -78.4, 1998, 140550, -2.61,  -78.40,  1998.00,  5356\n
SANTIAGO_DE_PANANZA, Oriente, -3.2, -78.5, 1229, 140854, -3.20,  -78.48,  1229.00,  4072\n
SANTIAGO_DE_QUITO_(CAB_EN_SAN_ANTONIO_DE_QUITO), Sierra, -1.8, -78.7, 3406, 60354, -1.77,  -78.73,  3406.00,  6018\n
SANTO_DOMINGO_DE_LOS_COLORADOS, Sierra, -0.2, -79.1, 489, 230150, -0.23,  -79.14,  489.00,  3293\n
SANTO_DOMINGO_DE_ONZOLE, Costa, 0.7, -79.2, 192, 80259, 0.68,  -79.16,  192.00,  2380\n
SAN_ANDRES, Sierra, -1.5, -78.8, 3609, 60754, -1.52,  -78.75,  3609.00,  6256\n
SAN_ANDRES1, , -1.1, -78.5, 2967, 180855, -1.10,  -78.54,  2967.00,  5552\n
SAN_ANDRES2, , -4.8, -79.3, 2366, 190259, -4.80,  -79.33,  2366.00,  5170\n
SAN_ANTONIO, Sierra, 0, -78.4, 2552, 170180, 0.03,  -78.44,  2552.00,  5155\n
SAN_ANTONIO1, , 0.3, -78.2, 2421, 100157, 0.32,  -78.17,  2421.00,  5159\n
SAN_ANTONIO2, , -4, -79.7, 1146, 110957, -3.98,  -79.66,  1146.00,  3977\n
SAN_ANTONIO3, , -0.7, -80.2, 19, 130357, -0.66,  -80.19,  19.00,  1992\n
SAN_ANTONIO4, , -2.6, -79.2, 1706, 30358, -2.60,  -79.23,  1706.00,  4549\n
SAN_ANTONIO5, , -3.5, -80, 81, 71254, -3.54,  -80.01,  81.00,  2403\n
SAN_ANTONIO_(CAB_EN_SAN_ANTONIO_CENTRO), Oriente, -3, -78.4, 1015, 140353, -3.04,  -78.37,  1015.00,  3820\n
SAN_ANTONIO_DE_BAYUSHIG, Sierra, -1.5, -78.5, 2808, 60954, -1.55,  -78.52,  2808.00,  5417\n
SAN_ANTONIO_DE_LAS_ARADAS_(CAB_EN_LAS_ARADAS), Sierra, -4.4, -79.4, 2095, 111552, -4.39,  -79.36,  2095.00,  4846\n
SAN_ANTONIO_DE_QUMBE_(CUMBE), Sierra, -3.5, -79.2, 2696, 111155, -3.53,  -79.23,  2696.00,  5338\n
SAN_BARTOLOME, Sierra, -3, -78.8, 2598, 10955, -3.01,  -78.85,  2598.00,  5358\n
SAN_BARTOLOME_DE_PINLLOG, Sierra, -1.2, -78.7, 3177, 180163, -1.21,  -78.65,  3177.00,  5809\n
SAN_BLAS, Sierra, 0.4, -78.3, 2753, 100654, 0.42,  -78.27,  2753.00,  5090\n
SAN_CARLOS, Oriente, -1.1, -79.4, 73, 120553, -1.11,  -79.42,  73.00,  2252\n
SAN_CARLOS1, , -2.5, -79.5, 46, 91152, -2.54,  -79.47,  46.00,  2384\n
SAN_CARLOS2, , -0.4, -76.9, 266, 220353, -0.40,  -76.89,  266.00,  2991\n
SAN_CARLOS_DE_LAS_MINAS, Oriente, -4.1, -78.8, 1509, 190158, -4.06,  -78.81,  1509.00,  4471\n
SAN_CARLOS_DE_LIMON, Oriente, -3.3, -78.3, 1818, 140852, -3.31,  -78.29,  1818.00,  4281\n
SAN_CRISTOBAL_(CARLOS_ORDONNEZ_LAZO), Sierra, -2.8, -78.8, 2559, 10559, -2.84,  -78.85,  2559.00,  5189\n
SAN_FCO_DE_NATABUELA, Sierra, 0.3, -78.2, 2597, 100252, 0.31,  -78.19,  2597.00,  5139\n
SAN_FCO_DE_SIGSIPAMBA, , 0.3, -77.9, 3251, 100553, 0.27,  -77.90,  3251.00,  6172\n
SAN_FELIPE_DE_ONNA, Sierra, -3.5, -79.1, 2946, 11050, -3.51,  -79.11,  2946.00,  5342\n
SAN_FERNANDO, Sierra, -3.1, -79.3, 2980, 10750, -3.14,  -79.27,  2980.00,  5405\n
SAN_FERNANDO_(PASA_SAN_FERNANDO), Sierra, -1.2, -78.8, 4146, 180164, -1.22,  -78.80,  4146.00,  6754\n
SAN_FRANCISCO, Costa, 0.7, -80, 124, 80356, 0.69,  -80.00,  124.00,  2230\n
SAN_FRANCISCO_DEL_VERGEL, Oriente, -4.7, -79, 2149, 190852, -4.71,  -79.03,  2149.00,  5398\n
SAN_FRANCISCO_DE_BORJA_(VIRGILIO_DAVILA), Oriente, -0.4, -77.9, 1918, 150754, -0.43,  -77.87,  1918.00,  5433\n
SAN_FRANCISCO_DE_CHINIMBIMI, Oriente, -2.7, -78.2, 816, 140557, -2.71,  -78.19,  816.00,  3581\n
SAN_FRANCISCO_DE_NOVILLO_(CAB_EN_NOVILLO), Costa, -0.2, -79.8, 188, 130551, -0.18,  -79.81,  188.00,  2235\n
SAN_FRANCISCO_DE_ONZOLE, Costa, 0.8, -79.1, 58, 80258, 0.85,  -79.11,  58.00,  2252\n
SAN_FRANCISCO_DE_SAGEO, Sierra, -2.7, -78.9, 2675, 30252, -2.71,  -78.88,  2675.00,  5237\n
SAN_GABRIEL, Sierra, 0.6, -77.8, 2791, 40550, 0.57,  -77.82,  2791.00,  5237\n
SAN_GERARDO, Sierra, -3.1, -79.2, 2923, 10252, -3.13,  -79.21,  2923.00,  5495\n
SAN_GERARDO_DE_PACAICAGUAN, Sierra, -1.6, -78.6, 2662, 60755, -1.64,  -78.62,  2662.00,  5373\n
SAN_GREGORIO, Costa, 0.5, -79.9, 64, 80357, 0.51,  -79.88,  64.00,  2211\n
SAN_ISIDRO, Sierra, 0.6, -78, 3185, 40353, 0.60,  -78.00,  3185.00,  5636\n
SAN_ISIDRO1, , -2.2, -78.2, 1500, 140156, -2.18,  -78.15,  1500.00,  3725\n
SAN_ISIDRO2, , -0.4, -80.2, 185, 131457, -0.37,  -80.20,  185.00,  2127\n
SAN_ISIDRO3, , -3.7, -80, 527, 71453, -3.74,  -80.00,  527.00,  3267\n
SAN_ISIDRO_DE_PATULU, Sierra, -1.5, -78.7, 3639, 60756, -1.54,  -78.67,  3639.00,  6242\n
SAN_JACINTO, Costa, -1.6, -80.1, 41, 90551, -1.61,  -80.14,  41.00,  2400\n
SAN_JACINTO_DEL_BUA, Sierra, -0.1, -79.4, 259, 230154, -0.15,  -79.42,  259.00,  2678\n
SAN_JACINTO_DE_BUENA_FE, Costa, -0.8, -79.5, 106, 121050, -0.77,  -79.51,  106.00,  2199\n
SAN_JACINTO_DE_WAKAMBEIS, Oriente, -3.3, -78.5, 1633, 140853, -3.28,  -78.49,  1633.00,  3246\n
SAN_JACINTO_DE_YAGUACHI, Costa, -2.1, -79.7, 7, 92050, -2.07,  -79.71,  7.00,  2489\n
SAN_JAVIER_DE_CACHAVI_(CAB_EN_SAN_JAVIER), Costa, 1.1, -78.8, 32, 80558, 1.07,  -78.77,  32.00,  2347\n
SAN_JOAQUIN, Sierra, -2.9, -79.2, 3723, 10163, -2.90,  -79.19,  3723.00,  6599\n
SAN_JOSE, Oriente, -1.3, -77.9, 986, 160351, -1.34,  -77.88,  986.00,  3028\n
SAN_JOSE1, , -3.6, -79.7, 988, 70354, -3.63,  -79.66,  988.00,  3743\n
SAN_JOSE_DEL_CHAZO, Sierra, -1.5, -78.6, 2930, 60757, -1.53,  -78.55,  2930.00,  5390\n
SAN_JOSE_DEL_TAMBO_(TAMBOPAMBA), Sierra, -2, -79.2, 1141, 20251, -2.02,  -79.19,  1141.00,  4574\n
SAN_JOSE_DE_ANCON, Costa, -2.3, -80.8, 50, 240156, -2.31,  -80.83,  50.00,  2651\n
SAN_JOSE_DE_CAYAPAS, Costa, 0.9, -79, 17, 80263, 0.90,  -78.97,  17.00,  2273\n
SAN_JOSE_DE_CHALTURA, Sierra, 0.4, -78.2, 2269, 100253, 0.37,  -78.19,  2269.00,  5159\n
SAN_JOSE_DE_CHAMANGA, Costa, 3.5, -79.9, 31, 80358, 3.50,  -79.88,  31.00,  2532\n
SAN_JOSE_DE_CHIMBO, Sierra, -1.7, -79, 2699, 20350, -1.66,  -79.02,  2699.00,  6004\n
SAN_JOSE_DE_DAHUANO, Oriente, -0.8, -77.4, 383, 220454, -0.82,  -77.42,  383.00,  3051\n
SAN_JOSE_DE_GUAYUSA, Oriente, -0.2, -77.2, 383, 220160, -0.18,  -77.17,  383.00,  3065\n
SAN_JOSE_DE_MINAS, Sierra, 0.2, -78.5, 2481, 170181, 0.19,  -78.49,  2481.00,  5236\n
SAN_JOSE_DE_MORONA, Oriente, -2.9, -77.7, 234, 141251, -2.89,  -77.75,  234.00,  2926\n
SAN_JOSE_DE_PAYAMINO, Oriente, -0.5, -77.3, 353, 220453, -0.52,  -77.32,  353.00,  2945\n
SAN_JOSE_DE_POALO, Sierra, -1.1, -78.4, 3555, 180856, -1.07,  -78.40,  3555.00,  6230\n
SAN_JOSE_DE_RARANGA, Sierra, -3.1, -78.9, 2775, 10956, -3.14,  -78.94,  2775.00,  5572\n
SAN_JUAN, Sierra, -3, -78.8, 2511, 10357, -2.96,  -78.82,  2511.00,  5258\n
SAN_JUAN1, , -1.6, -78.8, 4028, 60160, -1.57,  -78.83,  4028.00,  6494\n
SAN_JUAN2, , -1.7, -79.6, 19, 120452, -1.65,  -79.56,  19.00,  2433\n
SAN_JUAN_BOSCO, Oriente, -3.1, -78.6, 1569, 140850, -3.15,  -78.56,  1569.00,  3225\n
SAN_JUAN_DE_CERRO_AZUL, Costa, -3.5, -79.8, 771, 70355, -3.52,  -79.76,  771.00,  3438\n
SAN_JUAN_DE_ILUMAN, Sierra, 0.3, -78.2, 2755, 100456, 0.27,  -78.23,  2755.00,  5126\n
SAN_JUAN_DE_PASTOCALLE, Sierra, -0.7, -78.6, 3353, 50159, -0.68,  -78.64,  3353.00,  5777\n
SAN_LORENZO, Costa, -1.7, -78.9, 3738, 20156, -1.69,  -78.93,  3738.00,  6486\n
SAN_LORENZO1, , 1.3, -78.8, 41, 80550, 1.27,  -78.80,  41.00,  2376\n
SAN_LORENZO2, , -1.1, -80.9, 233, 130851, -1.09,  -80.87,  233.00,  2475\n
SAN_LUCAS, Sierra, -3.7, -79.2, 2582, 110157, -3.75,  -79.24,  2582.00,  5351\n
SAN_LUIS, Sierra, -1.7, -78.6, 2665, 60161, -1.71,  -78.64,  2665.00,  5446\n
SAN_LUIS_DE_ARMENIA, Oriente, -0.4, -77.2, 290, 220161, -0.41,  -77.16,  290.00,  2968\n
SAN_LUIS_DE_EL_ACHO_(CAB_EN_EL_ACHO), Oriente, -2.8, -78.3, 738, 140554, -2.79,  -78.33,  738.00,  3518\n
SAN_LUIS_DE_PAMBIL, Sierra, -1.2, -79.2, 482, 20160, -1.25,  -79.22,  482.00,  3180\n
SAN_MARTIN_DE_PUZHIO, Sierra, -3, -78.7, 3021, 11154, -2.98,  -78.75,  3021.00,  5537\n
SAN_MATEO, Costa, 0.8, -79.6, 10, 80163, 0.85,  -79.62,  10.00,  2142\n
SAN_MIGUEL, Sierra, -1.8, -79, 2867, 20554, -1.77,  -79.04,  2867.00,  6075\n
SAN_MIGUEL1, , -1, -78.5, 3281, 50550, -1.03,  -78.50,  3281.00,  5870\n
SAN_MIGUEL2, , -2.8, -78.8, 2784, 30158, -2.80,  -78.84,  2784.00,  5293\n
SAN_MIGUELITO, Sierra, -1.2, -78.5, 2809, 180857, -1.20,  -78.53,  2809.00,  5514\n
SAN_MIGUEL_DE_CONCHAY, Oriente, -3.1, -78.2, 1101, 140356, -3.15,  -78.24,  1101.00,  3913\n
SAN_MIGUEL_DE_CUYES, Oriente, -3.3, -78.9, 2505, 140257, -3.32,  -78.87,  2505.00,  5494\n
SAN_MIGUEL_DE_IBARRA, Sierra, 0.4, -78.1, 2244, 100150, 0.36,  -78.09,  2244.00,  5062\n
SAN_MIGUEL_DE_LOS_BANCOS, Sierra, -0, -79, 868, 170750, -0.03,  -78.96,  868.00,  3900\n
SAN_PABLO, Sierra, 0.2, -78.2, 2836, 100457, 0.21,  -78.17,  2836.00,  5184\n
SAN_PABLO_(CAB_EN_PUEBLO_NUEVO), Costa, -1.2, -80.1, 105, 131355, -1.21,  -80.06,  105.00,  2126\n
SAN_PABLO_(SAN_PABLO_DE_ATENAS), Sierra, -1.8, -79.1, 2304, 20554, -1.81,  -79.07,  2304.00,  5979\n
SAN_PABLO_DE_TENTA, Sierra, -3.6, -79.3, 2843, 111156, -3.62,  -79.30,  2843.00,  5411\n
SAN_PABLO_DE_USHPAYACU, Oriente, -0.9, -77.7, 676, 150354, -0.90,  -77.72,  676.00,  3556\n
SAN_PEDRO_DE_LA_BENDITA, Sierra, -4, -79.4, 2230, 110353, -3.96,  -79.45,  2230.00,  5021\n
SAN_PEDRO_DE_LOS_COFANES, Oriente, -0.2, -76.8, 292, 210454, -0.15,  -76.84,  292.00,  2955\n
SAN_PEDRO_DE_SUMA, Costa, -0.2, -79.6, 185, 130452, -0.17,  -79.56,  185.00,  2194\n
SAN_PEDRO_DE_VILCABAMBA, Sierra, -4.2, -79.2, 1818, 110158, -4.23,  -79.18,  1818.00,  4565\n
SAN_PLACIDO, Costa, -1.1, -80.1, 413, 130156, -1.06,  -80.14,  413.00,  2903\n
SAN_RAFAEL, Sierra, 0.4, -77.9, 2252, 40255, 0.43,  -77.91,  2252.00,  5360\n
SAN_RAFAEL1, , 0.2, -78.2, 3011, 100458, 0.18,  -78.23,  3011.00,  5277\n
SAN_RAFAEL_DE_SHARUG, Sierra, -3.3, -79.5, 1592, 10652, -3.27,  -79.54,  1592.00,  3145\n
SAN_ROQUE, Sierra, 0.3, -78.2, 2621, 100254, 0.30,  -78.22,  2621.00,  5151\n
SAN_ROQUE_(AMBROSIO_MALDONADO), Costa, -3.7, -79.7, 1046, 71055, -3.74,  -79.68,  1046.00,  3784\n
SAN_ROQUE_(CAB_EN_SAN_VICENTE), Oriente, -0.3, -76.4, 249, 210453, -0.32,  -76.40,  249.00,  2968\n
SAN_SEBASTIAN, Costa, -1.7, -79.1, 2667, 20354, -1.69,  -79.05,  2667.00,  6144\n
SAN_SEBASTIAN1, , -1.1, -80, 409, 131152, -1.08,  -79.97,  409.00,  2852\n
SAN_SEBASTIAN_DEL_COCA, Oriente, -0.2, -77, 323, 220354, -0.22,  -77.02,  323.00,  2976\n
SAN_SEBASTIAN_DE_YULUC, Sierra, -3.4, -79.4, 1710, 111157, -3.39,  -79.42,  1710.00,  3349\n
SAN_SIMON_(YACOTO), Sierra, -1.6, -78.9, 3395, 20157, -1.64,  -78.92,  3395.00,  6127\n
SAN_VICENTE, Costa, -2.9, -78.7, 2725, 11253, -2.87,  -78.65,  2725.00,  5290\n
SAN_VICENTE1, , -1.7, -79, 2625, 20556, -1.74,  -78.99,  2625.00,  5823\n
SAN_VICENTE2, , -0.6, -80.3, 168, 132250, -0.56,  -80.33,  168.00,  2043\n
SAN_VICENTE_DE_HUATICOCHA, Oriente, -0.7, -77.5, 1163, 220455, -0.68,  -77.51,  1163.00,  3908\n
SAN_VICENTE_DE_PUSIR, Sierra, 0.5, -78, 1745, 40254, 0.49,  -78.02,  1745.00,  4928\n
SAQUISILI, Sierra, -0.8, -78.7, 3057, 50650, -0.84,  -78.70,  3057.00,  5696\n
SARACAY, Costa, -3.7, -79.8, 323, 71056, -3.67,  -79.84,  323.00,  2885\n
SARAGURO, Sierra, -3.6, -79.2, 2524, 111150, -3.63,  -79.23,  2524.00,  5363\n
SARAYACU, Oriente, -1.8, -77.4, 447, 160161, -1.80,  -77.43,  447.00,  3276\n
SARDINAS, Oriente, -0.4, -77.9, 2242, 150455, -0.37,  -77.89,  2242.00,  5532\n
SAYAUSI, Sierra, -2.8, -79.2, 3796, 10165, -2.80,  -79.17,  3796.00,  6658\n
SELVA_ALEGRE, Costa, -3.6, -79.3, 2886, 111158, -3.56,  -79.35,  2886.00,  5375\n
SELVA_ALEGRE1, , 0.9, -78.9, 69, 80260, 0.92,  -78.88,  69.00,  2387\n
SELVA_ALEGRE_(CAB_EN_SAN_MIGUEL_DE_PAMPLONA), Sierra, 0.3, -78.5, 2371, 100459, 0.27,  -78.50,  2371.00,  5310\n
SEVILLA, Oriente, -2.3, -78.8, 3150, 60258, -2.30,  -78.82,  3150.00,  5850\n
SEVILLA1, , 0.1, -77.1, 400, 210652, 0.09,  -77.15,  400.00,  3051\n
SEVILLA_DE_ORO, Sierra, -2.8, -78.6, 3080, 11350, -2.80,  -78.62,  3080.00,  5672\n
SEVILLA_DON_BOSCO, Oriente, -2.5, -77.9, 839, 140157, -2.48,  -77.89,  839.00,  3741\n
SHELL, Oriente, -1.5, -78.1, 1100, 160252, -1.49,  -78.06,  1100.00,  3098\n
SHIMPIS, Oriente, -2.7, -78.1, 1373, 141052, -2.66,  -78.12,  1373.00,  3195\n
SHUSHUFINDI, Oriente, -0.2, -76.6, 292, 210450, -0.15,  -76.62,  292.00,  3011\n
SIBAMBE, Sierra, -2.2, -78.9, 3094, 60259, -2.19,  -78.91,  3094.00,  5840\n
SIDCAY, Sierra, -2.8, -79, 2598, 10166, -2.82,  -78.97,  2598.00,  5299\n
SIETE_DE_JULIO, Oriente, -0.2, -76.8, 291, 210455, -0.17,  -76.76,  291.00,  2982\n
SIGCHOS, Sierra, -0.6, -78.9, 2474, 50750, -0.62,  -78.91,  2474.00,  5401\n
SIGSIG, Sierra, -3.1, -78.8, 3281, 10950, -3.07,  -78.76,  3281.00,  6067\n
SIMIATUG, Sierra, -1.3, -79, 2739, 20159, -1.27,  -78.98,  2739.00,  5751\n
SIMON_BOLIVAR, Costa, -2, -79.5, 21, 92250, -2.00,  -79.45,  21.00,  2409\n
SIMON_BOLIVAR_(CAB_EN_GANNANZOL), Sierra, -3, -78.8, 2604, 10360, -2.97,  -78.79,  2604.00,  5314\n
SIMON_BOLIVAR_(CAB_EN_MUSHULLACTA), Oriente, -1.9, -77.7, 535, 160162, -1.90,  -77.69,  535.00,  3389\n
SIMON_BOLIVAR_(JULIO_MORENO), Costa, -2.2, -80.4, 138, 240155, -2.17,  -80.36,  138.00,  2494\n
SINAI, Oriente, -2.1, -78.2, 1740, 140158, -2.07,  -78.19,  1740.00,  4792\n
SININCAY, Sierra, -2.9, -79, 2699, 10167, -2.85,  -79.02,  2699.00,  5398\n
SINSAO, Costa, -3.6, -79.6, 1646, 71358, -3.62,  -79.58,  1646.00,  3072\n
SOLANO, Sierra, -2.8, -78.9, 2579, 30651, -2.81,  -78.93,  2579.00,  5229\n
SOZORANGA, Sierra, -4.2, -79.8, 1084, 111250, -4.25,  -79.79,  1084.00,  3934\n
STA_SUSANA_DE_CHIVIAZA_(CAB_EN_CHIVIAZA), Oriente, -2.9, -78.3, 1065, 140357, -2.92,  -78.30,  1065.00,  3974\n
SUA_(CAB_EN_LA_BOCANA), Costa, 0.8, -79.9, 139, 80652, 0.77,  -79.89,  139.00,  2324\n
SUCRE, Costa, -1.3, -80.4, 175, 131650, -1.30,  -80.42,  175.00,  2085\n
SUCRE_(CAB_EN_SUCRE-PATATE_URCU), Sierra, -1.2, -78.4, 3656, 180553, -1.24,  -78.40,  3656.00,  6415\n
SUCUA, Oriente, -2.5, -78.2, 1043, 140650, -2.45,  -78.20,  1043.00,  4025\n
SUMACO, Oriente, -0.5, -77.7, 2733, 150756, -0.49,  -77.72,  2733.00,  5696\n
SUMAYPAMBA, Sierra, -3.4, -79.3, 1856, 111160, -3.41,  -79.34,  1856.00,  3902\n
SUSCAL, Sierra, -2.5, -79.1, 2721, 30750, -2.46,  -79.07,  2721.00,  5885\n
SUSUDEL, Sierra, -3.4, -79.2, 2548, 11051, -3.42,  -79.20,  2548.00,  5158\n
TABABELA, Sierra, -0.1, -78.4, 2418, 170183, -0.14,  -78.36,  2418.00,  4940\n
TABACUNDO, Sierra, 0.1, -78.2, 2913, 170450, 0.06,  -78.22,  2913.00,  5193\n
TABIAZO, Costa, 0.8, -79.7, 144, 80165, 0.78,  -79.73,  144.00,  2275\n
TACAMOROS, Sierra, -4.4, -79.7, 2036, 111252, -4.43,  -79.73,  2036.00,  5206\n
TACHINA, Costa, 0.9, -79.6, 174, 80166, 0.94,  -79.60,  174.00,  2249\n
TADAY, Sierra, -2.7, -78.7, 3339, 30160, -2.66,  -78.71,  3339.00,  5861\n
TAISHA, Oriente, -2.4, -77.5, 493, 140950, -2.39,  -77.52,  493.00,  3223\n
TALAG, Oriente, -1.1, -78.2, 1900, 150157, -1.05,  -78.17,  1900.00,  5213\n
TAMBILLO, Costa, -0.4, -78.6, 2812, 170356, -0.41,  -78.56,  2812.00,  5395\n
TAMBILLO1, , 1.2, -78.9, 9, 80560, 1.18,  -78.89,  9.00,  2348\n
TANICUCHI, Sierra, -0.8, -78.6, 3031, 50161, -0.76,  -78.65,  3031.00,  5567\n
TAQUIL_(MIGUEL_RIOFRIO), Sierra, -3.9, -79.3, 1974, 110160, -3.92,  -79.29,  1974.00,  4096\n
TARACOA_(NUEVA_ESPERANZA_YUCA), , -0.5, -76.8, 283, 220152, -0.54,  -76.78,  283.00,  2908\n
TARAPOA, Oriente, -0.2, -76.3, 240, 210750, -0.19,  -76.26,  240.00,  2962\n
TARIFA, Costa, -2, -79.8, 2, 91651, -1.97,  -79.81,  2.00,  2580\n
TARQUI, Oriente, -3, -79, 2742, 10168, -3.00,  -79.04,  2742.00,  5491\n
TARQUI1, , -1.6, -78, 928, 160163, -1.57,  -77.96,  928.00,  3849\n
TAURA, Costa, -2.4, -79.6, 6, 91154, -2.43,  -79.64,  6.00,  2469\n
TAYUZA, Oriente, -2.7, -78.3, 810, 140556, -2.66,  -78.28,  810.00,  3584\n
TELEMBI, Costa, 0.6, -78.9, 411, 80261, 0.60,  -78.90,  411.00,  3057\n
TELIMBELA, Sierra, -1.7, -79.2, 1423, 20355, -1.68,  -79.19,  1423.00,  4217\n
TENA, Oriente, -1, -77.8, 499, 150150, -0.98,  -77.81,  499.00,  3313\n
TENDALES_(CAB_EN_PUERTO_TENDALES), Costa, -3.1, -79.8, 8, 70653, -3.13,  -79.80,  8.00,  2263\n
TENGUEL, Costa, -3, -79.8, 8, 90158, -3.01,  -79.79,  8.00,  2328\n
TENIENTE_HUGO_ORTIZ, Oriente, -1.4, -77.9, 1053, 160164, -1.36,  -77.94,  1053.00,  3091\n
TIMBARA, Oriente, -4.1, -78.9, 1365, 190156, -4.10,  -78.90,  1365.00,  4318\n
TIMBIRE, Costa, 1, -78.9, 51, 80264, 0.99,  -78.86,  51.00,  2329\n
TIPUTINI, Oriente, -0.8, -75.7, 208, 220254, -0.79,  -75.67,  208.00,  2720\n
TISALEO, Sierra, -1.4, -78.7, 3224, 180950, -1.35,  -78.67,  3224.00,  5848\n
TIXAN, Sierra, -2.2, -78.8, 3347, 60260, -2.15,  -78.77,  3347.00,  5959\n
TNTE_MAXIMILIANO_RODRIGUEZ_LOAIZA, Sierra, -4.2, -80.1, 1149, 110457, -4.20,  -80.06,  1149.00,  4001\n
TOACASO, Sierra, -0.7, -78.8, 3606, 50162, -0.71,  -78.76,  3606.00,  6016\n
TOBAR_DONOSO_(LA_BOCANA_DE_CAMUMBI), Sierra, 1, -78.4, 674, 40156, 1.02,  -78.43,  674.00,  2726\n
TOCACHI, Sierra, 0.1, -78.3, 2873, 170453, 0.05,  -78.30,  2873.00,  5149\n
TOMAS_DE_BERLANGA_(SANTO_TOMAS), , -0.4, -91.5, 1000, 200251, -0.39,  -91.51,  1000.00,  3420\n
TOMEBAMBA, Sierra, -2.7, -78.7, 2775, 10561, -2.72,  -78.68,  2775.00,  5278\n
TONCHIGUE, Costa, 0.8, -79.9, 83, 80653, 0.77,  -79.94,  83.00,  2139\n
TONSUPA, Costa, 0.9, -79.8, 70, 80654, 0.88,  -79.77,  70.00,  2221\n
TORATA, Costa, -3.6, -79.9, 520, 71255, -3.59,  -79.85,  520.00,  3108\n
TOSAGUA, Costa, -0.8, -80.3, 45, 131550, -0.77,  -80.30,  45.00,  2049\n
TOTORAS, Sierra, -1.3, -78.6, 2735, 180166, -1.31,  -78.61,  2735.00,  5422\n
TRES_DE_NOVIEMBRE, Oriente, -0.2, -76.9, 311, 220357, -0.17,  -76.93,  311.00,  2960\n
TUFINNO, Sierra, 0.8, -77.9, 3507, 40157, 0.76,  -77.87,  3507.00,  6087\n
TULCAN, Sierra, 0.8, -77.8, 3109, 40150, 0.77,  -77.76,  3109.00,  5643\n
TULULBI_(CAB_EN_RICAURTE), Costa, 1.1, -78.6, 96, 80561, 1.14,  -78.63,  96.00,  2455\n
TUMBABIRO, Sierra, 0.5, -78.2, 2143, 100655, 0.46,  -78.20,  2143.00,  5126\n
TUMBACO, Sierra, -0.2, -78.4, 2360, 170184, -0.22,  -78.39,  2360.00,  4984\n
TUNDAYME, Oriente, -3.6, -78.5, 1129, 190653, -3.61,  -78.45,  1129.00,  4041\n
TUPIGACHI, Sierra, 0.1, -78.2, 2990, 170454, 0.10,  -78.19,  2990.00,  5272\n
TURI, Sierra, -2.9, -79, 2642, 10169, -2.95,  -79.02,  2642.00,  5434\n
TURUPAMBA, Sierra, -2.7, -78.9, 2893, 30253, -2.73,  -78.91,  2893.00,  5316\n
TUTUPALI, Oriente, -3.5, -79, 2619, 190452, -3.47,  -78.96,  2619.00,  5457\n
TUUTINENTZA, Oriente, -2.7, -77.5, 232, 140953, -2.69,  -77.51,  232.00,  2929\n
ULBA, Sierra, -1.4, -78.4, 2467, 180254, -1.38,  -78.37,  2467.00,  5383\n
UNAMUNCHO, Sierra, -1.2, -78.6, 2689, 180168, -1.17,  -78.59,  2689.00,  5490\n
UNION_MILAGRENNA, Oriente, -0.4, -76.8, 265, 220358, -0.39,  -76.78,  265.00,  2981\n
URBINA, Costa, 1, -78.7, 108, 80562, 0.99,  -78.69,  108.00,  2412\n
URBINA_(TAYA), Sierra, 0.8, -77.7, 2999, 40158, 0.78,  -77.70,  2999.00,  5406\n
URCUQUI, Sierra, 0.4, -78.2, 2148, 100650, 0.42,  -78.18,  2148.00,  5095\n
URDANETA_(PAQUISHAPA), Sierra, -3.6, -79.2, 2815, 111159, -3.64,  -79.17,  2815.00,  5476\n
UTUANA, Sierra, -4.4, -79.7, 1773, 110253, -4.38,  -79.68,  1773.00,  4678\n
UYUMBICHO, Sierra, -0.4, -78.5, 2800, 170357, -0.41,  -78.52,  2800.00,  5108\n
UZHCURRUMI, Costa, -3.4, -79.6, 650, 70955, -3.35,  -79.60,  650.00,  3348\n
VACAS_GALINDO_(EL_CHURO)_(CAB_EN_SAN_MIGUEL_ALTO), Sierra, 0.3, -78.5, 1980, 100358, 0.31,  -78.54,  1980.00,  5292\n
VALDEZ_(LIMONES), Costa, 1.2, -79, 5, 80250, 1.21,  -78.98,  5.00,  2330\n
VALENCIA, Costa, -0.8, -79.3, 242, 121150, -0.78,  -79.31,  242.00,  2667\n
VALLADOLID, Oriente, -4.5, -79.1, 2452, 190853, -4.46,  -79.14,  2452.00,  5296\n
VALLE, Sierra, -2.9, -79, 2649, 10170, -2.94,  -78.97,  2649.00,  5289\n
VALLE_DE_LA_VIRGEN, Costa, -1.7, -80.2, 75, 91451, -1.73,  -80.19,  75.00,  2405\n
VALLE_HERMOSO, Sierra, -0.1, -79.2, 341, 230155, -0.07,  -79.24,  341.00,  2835\n
VALPARAISO, Sierra, -1.6, -78.6, 3425, 60759, -1.55,  -78.61,  3425.00,  5982\n
VELASCO_IBARRA_(CAB_EL_EMPALME), Costa, -1, -79.7, 70, 90850, -1.04,  -79.67,  70.00,  2225\n
VENTANAS, Costa, -1.5, -79.4, 19, 120750, -1.46,  -79.45,  19.00,  2367\n
VENTURA, Sierra, -2.3, -79.1, 705, 30362, -2.28,  -79.13,  705.00,  3520\n
VERACRUZ_(INDILLAMA)_(CAB_EN_INDILLAMA), Oriente, -1.5, -77.9, 1077, 160165, -1.53,  -77.89,  1077.00,  3124\n
VICENTINO, Sierra, -4, -79.9, 1551, 111055, -3.98,  -79.92,  1551.00,  4332\n
VICHE, Costa, 0.6, -79.5, 55, 80454, 0.63,  -79.55,  55.00,  2210\n
VICTORIA, Costa, -3.4, -79.8, 44, 71256, -3.42,  -79.83,  44.00,  2273\n
VICTORIA_DEL_PORTETE_(IRQUIS), Sierra, -3.1, -79.1, 3040, 10171, -3.07,  -79.12,  3040.00,  5708\n
VILCABAMBA_(VICTORIA), Sierra, -4.3, -79.2, 1785, 110161, -4.28,  -79.23,  1785.00,  4625\n
VILLA_LA_UNION_(CAJABAMBA), Sierra, -1.7, -78.8, 3378, 60350, -1.73,  -78.79,  3378.00,  5993\n
VINCES, Costa, -1.5, -79.7, 24, 120850, -1.49,  -79.72,  24.00,  2365\n
VIRGEN_DE_FATIMA, Costa, -2.3, -79.7, 10, 92056, -2.27,  -79.67,  10.00,  2562\n
VUELTA_LARGA, Costa, 0.9, -79.7, 41, 80168, 0.89,  -79.71,  41.00,  2218\n
WILFRIDO_LOOR_MOREIRA_(MAICITO), Costa, -0.3, -79.6, 194, 130451, -0.33,  -79.65,  194.00,  2231\n
YAGUACHI_VIEJO_(CONE), Costa, -2.2, -79.7, 12, 92055, -2.19,  -79.67,  12.00,  2536\n
YAMANA, Sierra, -4, -79.7, 1021, 110959, -4.00,  -79.69,  1021.00,  3890\n
YANAYACU_-_MOCHAPATA_(CAB_EN_YANAYACU), Sierra, -1.5, -78.7, 3636, 180652, -1.47,  -78.68,  3636.00,  6236\n
YANGANA_(ARSENIO_CASTILLO), Sierra, -4.4, -79.2, 2424, 110162, -4.39,  -79.18,  2424.00,  5238\n
YANTZAZA_(YANZATZA), Oriente, -3.8, -78.8, 962, 190550, -3.78,  -78.77,  962.00,  3735\n
YARUQUI, Sierra, -0.2, -78.3, 3052, 170185, -0.19,  -78.30,  3052.00,  5394\n
YASUNI, Oriente, -0.8, -75.3, 194, 220255, -0.77,  -75.35,  194.00,  2683\n
YAUPI, Oriente, -2.8, -78, 658, 141051, -2.81,  -78.01,  658.00,  3443\n
YUNGANZA_(CAB_EN_EL_ROSARIO), Oriente, -2.9, -78.5, 2563, 140358, -2.89,  -78.47,  2563.00,  5571\n
ZAMBI, Sierra, -3.9, -79.5, 1714, 110354, -3.94,  -79.51,  1714.00,  4438\n
ZAMBIZA, Sierra, -0.1, -78.4, 2345, 170186, -0.14,  -78.42,  2345.00,  4955\n
ZAMORA, Oriente, -4.2, -79, 1853, 190150, -4.16,  -79.00,  1853.00,  4722\n
ZAPALLO, Costa, -0.5, -80, 193, 130552, -0.46,  -79.98,  193.00,  2129\n
ZAPOTAL, Costa, -1.3, -79.4, 59, 120752, -1.30,  -79.42,  59.00,  2255\n
ZAPOTILLO, Sierra, -4.4, -80.3, 282, 111350, -4.36,  -80.26,  282.00,  3243\n
ZARUMA, Costa, -3.7, -79.6, 1329, 71350, -3.69,  -79.61,  1329.00,  4107\n
ZHAGLLI_(SHAGLLI_), Sierra, -3.1, -79.4, 3494, 10853, -3.11,  -79.39,  3494.00,  6228\n
ZHIDMAD, Sierra, -2.9, -78.9, 2949, 10358, -2.95,  -78.88,  2949.00,  5317\n
ZHUD, Sierra, -2.5, -79, 3230, 30361, -2.45,  -78.99,  3230.00,  6053\n
ZUMBA, Oriente, -2.2, -78.4, 2982, 140160, -2.19,  -78.40,  2982.00,  5666\n
ZUMBAHUA, Sierra, -4.9, -79.2, 1484, 190250, -4.85,  -79.18,  1484.00,  4605\n
ZUMBI, Oriente, -1, -78.9, 3486, 50458, -0.96,  -78.90,  3486.00,  6196\n
ZUNNA_(ZUNNAC), Oriente, -4, -78.7, 1204, 190750, -3.96,  -78.75,  1204.00,  4025\n
ZURMI, Oriente, -4.3, -78.7, 1043, 190351, -4.25,  -78.75,  1043.00,  3943\n
nombre,region,latitud,longitud,altura,codigo_parroquia,Latitude, Longitude, Elevation, HorasDisconfort, Revisar estas Parroquias
10_DE_AGOSTO, Costa, -0.1, -80.1, 169, 131752, -0.13,  -80.05,  169.00,  2182\n
5_DE_JUNIO_(CAB_EN_UIMBI), Costa, 0.9, -78.7, 174, 80555, 0.93,  -78.75,  174.00,  2380\n, 0.94,  -79.60,  174.00,  2249\n
ABDON_CALDERON_(SAN_FRANCISCO), Costa, -1, -80.3, 68, 130151, -1.05,  -80.32,  68.00,  1966\n
ALAQUES_(ALAQUEZ), Sierra, -0.9, -78.5, 3818, 50151, -0.85,  -78.49,  3818.00,  6429\n
ALAUSI, Sierra, -2.2, -78.9, 2279, 60250, -2.19,  -78.85,  2279.00,  5190\n
ALOAG, Sierra, -0.5, -78.6, 3089, 170351, -0.45,  -78.65,  3089.00,  5762\n
ANGEL_PEDRO_GILER_(LA_ESTANCILLA), Costa, -0.8, -80.2, 28, 131552, -0.84,  -80.25,  28.00,  1914\n
ASUNCION, Oriente, -3.2, -79.2, 1710, 10251, -3.23,  -79.25,  1710.00,  3551\n
BARRAGANETE, Costa, -0.7, -79.8, 148, 131151, -0.75,  -79.79,  148.00,  2200\n
BOLIVAR, Sierra, -1.4, -78.6, 3004, 180752, -1.39,  -78.55,  3004.00,  5598\n
BOYACA, Costa, -0.5, -80.2, 220, 130351, -0.55,  -80.17,  220.00,  2414\n
CALACALI, Sierra, 0, -78.5, 2869, 170154, 0.05,  -78.52,  2869.00,  5393\n
CAMILO_PONCE_ENRIQUEZ, Sierra, -3.1, -79.7, 1209, 11550, -3.05,  -79.65,  1209.00,  4287\n
CANGAHUA, Sierra, -0.1, -78.1, 3495, 170252, -0.09,  -78.15,  3495.00,  5756\n
CAROLINA, Sierra, 0.6, -78.2, 2486, 100153, 0.65,  -78.22,  2486.00,  5227\n
CASACAY, Costa, -3.3, -79.7, 245, 70952, -3.35,  -79.71,  245.00,  2654\n
CATACOCHA, Sierra, -4.1, -79.6, 2216, 110950, -4.08,  -79.65,  2216.00,  4912\n
CEBADAS, Sierra, -2, -78.6, 4021, 60651, -2.05,  -78.55,  4021.00,  6545\n
CELICA, Sierra, -4.1, -80, 1144, 110450, -4.15,  -79.95,  1144.00,  3936\n
CHANTILIN, Sierra, -0.9, -78.6, 2868, 50652
CHARAPOTO, Costa, -0.8, -80.4, 111, 131453, -0.79,  -80.45,  111.00,  1953\n
CHIBUNGA, Costa, -0.1, -79.7, 219, 130354, -0.06,  -79.75,  219.00,  2608\n
CHICANNA, Oriente, -3.6, -78.7, 2172, 190551, -3.65,  -78.75,  2172.00,  5214\n
CHICAN_(GUILLERMO_ORTEGA), Sierra, -2.8, -78.7, 2854, 10553, -2.81,  -78.75,  2854.00,  5322\n
CHUMBLIN, Sierra, -3.1, -79.2, 3528, 10751, -3.09,  -79.25,  3528.00,  6173\n
CUSUBAMBA, Sierra, -1.1, -78.7, 3815, 50552, -1.09,  -78.75,  3815.00,  6433\n
EL_ALTAR, Sierra, -1.5, -78.4, 3662, 60951, -1.55,  -78.44,  3662.00,  6313\n
EL_DORADO_DE_CASCALES, Oriente, 0.1, -77.2, 506, 210650, 0.15,  -77.25,  506.00,  2690\n
EL_INGENIO1, , -3.7, -79.9, 632, 70851, -3.73,  -79.95,  632.00,  3272\n
EL_PARAISO_DE_CELEN, Sierra, -3.6, -79.4, 2794, 111151, -3.60,  -79.35,  2794.00,  5373\n
EL_PROGRESO_(CAB_EN_ZHOTA), Sierra, -3.4, -79.2, 2307, 10452, -3.37,  -79.25,  2307.00,  5014\n
GALERA, Costa, 0.8, -80.1, 150, 80353, 0.78,  -80.05,  150.00,  2308\n
GARCIA_MORENO, Sierra, 0.5, -78, 2977, 40251, 0.55,  -77.97,  2977.00,  5378\n
GONZALEZ_SUAREZ, Sierra, 0.2, -78.2, 2932, 100453, 0.15,  -78.20,  2932.00,  5284\n
GUANAZAN, Costa, -3.4, -79.5, 2941, 71353, -3.45,  -79.50,  2941.00,  5549\n
ILAPO, Sierra, -1.5, -78.6, 3260, 60752, -1.55,  -78.58,  3260.00,  5824\n
IMANTAG, Sierra, 0.4, -78.3, 3902, 100353, 0.45,  -78.35,  3902.00,  6301\n
INDANZA, Oriente, -3.1, -78.5, 1259, 140351, -3.05,  -78.48,  1259.00,  4133\n
JADAN, Sierra, -2.9, -78.9, 2946, 10353, -2.90,  -78.85,  2946.00,  5392\n
JERUSALEN, Sierra, -2.7, -79, 3414, 30254, -2.65,  -78.97,  3414.00,  5966\n
LAGO_SAN_PEDRO, Oriente, -0.2, -76.9, 301, 220355, -0.25,  -76.93,  301.00,  2976\n
LA_AVANZADA, Costa, -3.6, -79.9, 142, 71253, -3.57,  -79.95,  142.00,  2367\n
LA_CHONTA, Oriente, -4.9, -79.1, 1300, 190254, -4.95,  -79.09,  1300.00,  4443\n
LA_PEANNA, Costa, -3.3, -79.9, 21, 70953, -3.31,  -79.85,  21.00,  2187\n
LA_UNION2, , 0.2, -79.4, 163, 80455, 0.15,  -79.43,  163.00,  2230\n, -0.60,  -79.42,  163.00,  2187\n
LLIGUA, Sierra, -1.4, -78.4, 2416, 180251, -1.38,  -78.45,  2416.00,  5263\n
LOS_ANDES_(CAB_EN_POATUG), Sierra, -1.2, -78.5, 2952, 180552, -1.25,  -78.49,  2952.00,  5557\n
MACUMA, Oriente, -2.2, -77.7, 599, 140952, -2.15,  -77.66,  599.00,  3336\n
MALDONADO1, , 1, -78.9, 29, 80256, 1.05,  -78.90,  29.00,  2344\n
MARCOS_ESPINEL_(CHACATA), Sierra, -1.2, -78.4, 3840, 180853, -1.15,  -78.42,  3840.00,  6491\n
MIRA_(CHONTAHUASI), Sierra, 0.6, -78.1, 2539, 40450, 0.56,  -78.05,  2539.00,  5050\n
MUISNE, Costa, 0.6, -79.9, 35, 80350, 0.61,  -79.95,  35.00,  2241\n
NANEGALITO, Sierra, 0, -78.7, 1818, 170169, 0.05,  -78.72,  1818.00,  5335\n
NARANJITO, Costa, -2.2, -79.4, 46, 91250, -2.15,  -79.40,  46.00,  2387\n
PELILEO, Sierra, -1.3, -78.5, 2574, 180750, -1.35,  -78.53,  2574.00,  5318\n
PICHINCHA, Costa, -1, -79.8, 106, 131150, -0.95,  -79.85,  106.00,  2097\n
PILAGUIN_(PILAHUIN), Sierra, -1.3, -78.8, 3972, 180161, -1.35,  -78.83,  3972.00,  6555\n
PIMAMPIRO, Sierra, 0.4, -77.9, 2376, 100550, 0.36,  -77.95,  2376.00,  5347\n
PINTAG, Sierra, -0.4, -78.3, 3401, 170176, -0.45,  -78.34,  3401.00,  5896\n
POMASQUI, Sierra, -0, -78.5, 2481, 170177, -0.05,  -78.46,  2481.00,  4914\n, 0.19,  -78.49,  2481.00,  5236\n
POZUL_(SAN_JUAN_DE_POZUL), Sierra, -4.1, -80.1, 1597, 110455, -4.13,  -80.05,  1597.00,  4379\n
PUCAPAMBA, Oriente, -4.9, -79.1, 1092, 190256, -4.95,  -79.12,  1092.00,  4212\n
PUERTO_BOLIVAR_(PUERTO_MONTUFAR), Oriente, -0, -76, 262, 210352, -0.05,  -76.03,  262.00,  2989\n
PUERTO_LIMON, Sierra, -0.4, -79.4, 269, 230152, -0.35,  -79.36,  269.00,  2690\n
PUERTO_NAPO, Oriente, -1.1, -77.7, 456, 150156, -1.09,  -77.75,  456.00,  3250\n
PUERTO_VILLAMIL, , -1, -91, 1000, 200250, -0.95,  -90.97,  1000.00,  3385\n
RUMIPAMBA2, , -1.5, -78.6, 3569, 180651, -1.45,  -78.63,  3569.00,  6220\n
SABANILLA2, , -4.2, -80.1, 578, 110456, -4.21,  -80.15,  578.00,  3440\n
SACAPALCA, Sierra, -4.1, -79.5, 1519, 110756, -4.15,  -79.53,  1519.00,  4275\n
SANGOLQUI, Sierra, -0.4, -78.4, 2590, 170550, -0.35,  -78.44,  2590.00,  5120\n
SANTA_MARTHA_DE_CUBA, Sierra, 0.6, -77.8, 2832, 40161, 0.65,  -77.76,  2832.00,  5306\n
SANTA_ROSA3, , -0.5, -90.4, 1000, 200352, -0.48,  -90.45,  1000.00,  3529\n
SAN_ANTONIO_DE_BAYUSHIG, Sierra, -1.5, -78.5, 2808, 60954, -1.55,  -78.52,  2808.00,  5417\n
SAN_JOSE_DEL_CHAZO, Sierra, -1.5, -78.6, 2930, 60757, -1.53,  -78.55,  2930.00,  5390\n
SAN_JOSE_DE_MORONA, Oriente, -2.9, -77.7, 234, 141251, -2.89,  -77.75,  234.00,  2926\n
SAN_JOSE_DE_QUICHINCHE, Sierra, 0.2, -78.4, 2805, 100455
SAN_JUAN2, , -1.7, -79.6, 19, 120452, -1.65,  -79.56,  19.00,  2433\n
SAN_LUCAS, Sierra, -3.7, -79.2, 2582, 110157, -3.75,  -79.24,  2582.00,  5351\n
SAN_LUIS_DE_PAMBIL, Sierra, -1.2, -79.2, 482, 20160, -1.25,  -79.22,  482.00,  3180\n
SAN_MARTIN_DE_PUZHIO, Sierra, -3, -78.7, 3021, 11154, -2.98,  -78.75,  3021.00,  5537\n
SAN_PEDRO_DE_LA_BENDITA, Sierra, -4, -79.4, 2230, 110353, -3.96,  -79.45,  2230.00,  5021\n
SAN_PEDRO_DE_LOS_COFANES, Oriente, -0.2, -76.8, 292, 210454, -0.15,  -76.84,  292.00,  2955\n
SAN_SEBASTIAN, Costa, -1.7, -79.1, 2667, 20354, -1.69,  -79.05,  2667.00,  6144\n
SEVILLA1, , 0.1, -77.1, 400, 210652, 0.09,  -77.15,  400.00,  3051\n
SHUSHUFINDI, Oriente, -0.2, -76.6, 292, 210450, -0.15,  -76.62,  292.00,  3011\n
SOZORANGA, Sierra, -4.2, -79.8, 1084, 111250, -4.25,  -79.79,  1084.00,  3934\n
TANICUCHI, Sierra, -0.8, -78.6, 3031, 50161, -0.76,  -78.65,  3031.00,  5567\n
TINGO, Sierra, -0.9, -79.1, 1554, 50457
TIXAN, Sierra, -2.2, -78.8, 3347, 60260, -2.15,  -78.77,  3347.00,  5959\n
TORATA, Costa, -3.6, -79.9, 520, 71255, -3.59,  -79.85,  520.00,  3108\n
TURI, Sierra, -2.9, -79, 2642, 10169, -2.95,  -79.02,  2642.00,  5434\n
VENTANAS, Costa, -1.5, -79.4, 19, 120750, -1.46,  -79.45,  19.00,  2367\n
WILFRIDO_LOOR_MOREIRA_(MAICITO), Costa, -0.3, -79.6, 194, 130451, -0.33,  -79.65,  194.00,  2231\n
ZHIDMAD, Sierra, -2.9, -78.9, 2949, 10358, -2.95,  -78.88,  2949.00,  5317\n
ZUMBAHUA, Sierra, -4.9, -79.2, 1484, 190250, -4.85,  -79.18,  1484.00,  4605\n
ZUNNA_(ZUNNAC), Oriente, -4, -78.7, 1204, 190750, -3.96,  -78.75,  1204.00,  4025\n
ZURMI, Oriente, -4.3, -78.7, 1043, 190351, -4.25,  -78.75,  1043.00,  3943\n
